[
  {
    "id": 1926726026,
    "lat": 35.6569261,
    "lon": 139.7547098,
    "name": "大門",
    "name_en": "Daimon",
    "ward": "Minato",
    "operator": "東京都交通局"
  },
  {
    "id": 2012000223,
    "lat": 35.6381027,
    "lon": 139.7265652,
    "name": "白金台",
    "name_en": "Shirokanedai",
    "ward": "Minato",
    "operator": "東京都交通局"
  },
  {
    "id": 2179133140,
    "lat": 35.6429531,
    "lon": 139.734168,
    "name": "白金高輪",
    "name_en": "Shirokane-takanawa",
    "ward": "Minato",
    "operator": "東京都交通局"
  },
  {
    "id": 2546879674,
    "lat": 35.6280038,
    "lon": 139.7380078,
    "name": "品川",
    "name_en": "Shinagawa",
    "ward": "Minato",
    "operator": "京浜急行電鉄"
  },
  {
    "id": 2558121907,
    "lat": 35.6551111,
    "lon": 139.7570622,
    "name": "浜松町",
    "name_en": "Hamamatsucho",
    "ward": "Minato",
    "operator": "東日本旅客鉄道"
  },
  {
    "id": 3349902307,
    "lat": 35.6259018,
    "lon": 139.7714216,
    "name": "台場",
    "name_en": "Daiba",
    "ward": "Minato",
    "operator": "ゆりかもめ"
  },
  {
    "id": 3349902309,
    "lat": 35.6298721,
    "lon": 139.7787386,
    "name": "お台場海浜公園",
    "name_en": "Odaiba-kaihinkoen",
    "ward": "Minato",
    "operator": "ゆりかもめ"
  },
  {
    "id": 3349961079,
    "lat": 35.6491888,
    "lon": 139.7590999,
    "name": "日の出",
    "name_en": "Hinode",
    "ward": "Minato",
    "operator": "ゆりかもめ"
  },
  {
    "id": 3349961081,
    "lat": 35.6417379,
    "lon": 139.7577718,
    "name": "芝浦ふ頭",
    "name_en": "Shibaura-futo",
    "ward": "Minato",
    "operator": "ゆりかもめ"
  },
  {
    "id": 3349961083,
    "lat": 35.6653482,
    "lon": 139.7598936,
    "name": "新橋",
    "name_en": "Shimbashi",
    "ward": "Minato",
    "operator": "ゆりかもめ"
  },
  {
    "id": 3349961085,
    "lat": 35.662907,
    "lon": 139.7599723,
    "name": "汐留",
    "name_en": "Shiodome",
    "ward": "Minato",
    "operator": "ゆりかもめ"
  },
  {
    "id": 3349961086,
    "lat": 35.6539736,
    "lon": 139.761907,
    "name": "竹芝",
    "name_en": "Takeshiba",
    "ward": "Minato",
    "operator": "ゆりかもめ"
  },
  {
    "id": 3708279828,
    "lat": 35.6457358,
    "lon": 139.7476833,
    "name": "田町",
    "name_en": "Tamachi",
    "ward": "Minato",
    "operator": "東日本旅客鉄道"
  },
  {
    "id": 4011643453,
    "lat": 35.6661689,
    "lon": 139.7582206,
    "name": "新橋",
    "name_en": "Shimbashi",
    "ward": "Minato",
    "operator": "東日本旅客鉄道"
  },
  {
    "id": 4011643454,
    "lat": 35.6286974,
    "lon": 139.7391291,
    "name": "品川",
    "name_en": "Shinagawa",
    "ward": "Minato",
    "operator": "東日本旅客鉄道"
  },
  {
    "id": 5409191613,
    "lat": 35.6476619,
    "lon": 139.7483983,
    "name": "三田",
    "name_en": "Mita",
    "ward": "Minato",
    "operator": "東京都交通局"
  },
  {
    "id": 6057804601,
    "lat": 35.6554012,
    "lon": 139.7567283,
    "name": "モノレール浜松町",
    "name_en": "Monorail Hamamatsucho",
    "ward": "Minato",
    "operator": "モノレール浜松町"
  },
  {
    "id": 6179550652,
    "lat": 35.6763213,
    "lon": 139.7375253,
    "name": "赤坂見附",
    "name_en": "Akasaka-mitsuke",
    "ward": "Minato",
    "operator": "東京地下鉄"
  },
  {
    "id": 6203282789,
    "lat": 35.6715337,
    "lon": 139.741961,
    "name": "溜池山王",
    "name_en": "Tameike-sanno",
    "ward": "Minato",
    "operator": "東京地下鉄"
  },
  {
    "id": 6210190874,
    "lat": 35.672224,
    "lon": 139.736388,
    "name": "赤坂",
    "name_en": "Akasaka",
    "ward": "Minato",
    "operator": "東京地下鉄"
  },
  {
    "id": 6219132765,
    "lat": 35.6651609,
    "lon": 139.7125432,
    "name": "表参道",
    "name_en": "Omote-sando",
    "ward": "Minato",
    "operator": "東京地下鉄"
  },
  {
    "id": 6227812514,
    "lat": 35.6649728,
    "lon": 139.738849,
    "name": "六本木一丁目",
    "name_en": "Roppongi-itchome",
    "ward": "Minato",
    "operator": "東京地下鉄"
  },
  {
    "id": 6230838993,
    "lat": 35.6671895,
    "lon": 139.7588592,
    "name": "新橋",
    "name_en": "Shimbashi",
    "ward": "Minato",
    "operator": "東京地下鉄"
  },
  {
    "id": 6231153217,
    "lat": 35.6654012,
    "lon": 139.759388,
    "name": "新橋",
    "name_en": "Shimbashi",
    "ward": "Minato",
    "operator": "東京都交通局"
  },
  {
    "id": 6231339938,
    "lat": 35.6632377,
    "lon": 139.7602718,
    "name": "汐留",
    "name_en": "Shiodome",
    "ward": "Minato",
    "operator": "東京都交通局"
  },
  {
    "id": 6233834712,
    "lat": 35.654237,
    "lon": 139.7498924,
    "name": "芝公園",
    "name_en": "Shibakoen",
    "ward": "Minato",
    "operator": "東京都交通局"
  },
  {
    "id": 6279803459,
    "lat": 35.6387807,
    "lon": 139.7400615,
    "name": "泉岳寺",
    "name_en": "Sengakuji",
    "ward": "Minato",
    "operator": "東京都交通局"
  },
  {
    "id": 6284888995,
    "lat": 35.6727797,
    "lon": 139.7240186,
    "name": "青山一丁目",
    "name_en": "Aoyama-itchome",
    "ward": "Minato",
    "operator": "東京地下鉄;東京都交通局"
  },
  {
    "id": 6352945230,
    "lat": 35.6608011,
    "lon": 139.7513591,
    "name": "御成門",
    "name_en": "Onarimon",
    "ward": "Minato",
    "operator": "東京都交通局"
  },
  {
    "id": 6443199834,
    "lat": 35.6666651,
    "lon": 139.726365,
    "name": "乃木坂",
    "name_en": "Nogizaka",
    "ward": "Minato",
    "operator": "東京地下鉄"
  },
  {
    "id": 6511944763,
    "lat": 35.6565014,
    "lon": 139.7361613,
    "name": "麻布十番",
    "name_en": "Azabu-juban",
    "ward": "Minato",
    "operator": "東京都交通局"
  },
  {
    "id": 7140328435,
    "lat": 35.6551789,
    "lon": 139.7371506,
    "name": "麻布十番",
    "name_en": "Azabu-juban",
    "ward": "Minato",
    "operator": "東京地下鉄"
  },
  {
    "id": 7502284289,
    "lat": 35.635399,
    "lon": 139.7406642,
    "name": "高輪ゲートウェイ",
    "name_en": "Takanawa Gateway",
    "ward": "Minato",
    "operator": "東日本旅客鉄道"
  },
  {
    "id": 7777248485,
    "lat": 35.6550406,
    "lon": 139.7439828,
    "name": "赤羽橋",
    "name_en": "Akabanebashi",
    "ward": "Minato",
    "operator": "東京都交通局"
  },
  {
    "id": 7786715953,
    "lat": 35.6704649,
    "lon": 139.7178823,
    "name": "外苑前",
    "name_en": "Gaiemmae",
    "ward": "Minato",
    "operator": "東京地下鉄"
  },
  {
    "id": 7786715969,
    "lat": 35.6701871,
    "lon": 139.750056,
    "name": "虎ノ門",
    "name_en": "Toranomon",
    "ward": "Minato",
    "operator": "東京地下鉄"
  },
  {
    "id": 7786715973,
    "lat": 35.6674688,
    "lon": 139.7477648,
    "name": "虎ノ門ヒルズ",
    "name_en": "Toranomon Hills",
    "ward": "Minato",
    "operator": "東京地下鉄"
  },
  {
    "id": 7786715974,
    "lat": 35.662964,
    "lon": 139.7450477,
    "name": "神谷町",
    "name_en": "Kamiyacho",
    "ward": "Minato",
    "operator": "東京地下鉄"
  },
  {
    "id": 7786715975,
    "lat": 35.6628364,
    "lon": 139.7313268,
    "name": "六本木",
    "name_en": "Roppongi",
    "ward": "Minato",
    "operator": "東京地下鉄"
  },
  {
    "id": 7791591079,
    "lat": 35.6317345,
    "lon": 139.7304256,
    "name": "高輪台",
    "name_en": "Takanawadai",
    "ward": "Minato",
    "operator": "東京都交通局"
  },
  {
    "id": 7791605893,
    "lat": 35.6635758,
    "lon": 139.7319706,
    "name": "六本木",
    "name_en": "Roppongi",
    "ward": "Minato",
    "operator": "東京都交通局"
  },
  {
    "id": 7791605902,
    "lat": 35.6694556,
    "lon": 139.7553799,
    "name": "内幸町",
    "name_en": "Uchisaiwaicho",
    "ward": "Minato",
    "operator": "東京都交通局"
  },
  {
    "id": 7792004174,
    "lat": 35.6286457,
    "lon": 139.7400659,
    "name": "品川",
    "name_en": "Shinagawa",
    "ward": "Minato",
    "operator": "JR東海"
  },
  {
    "id": 7908619801,
    "lat": 35.6429263,
    "lon": 139.7341529,
    "name": "白金高輪",
    "name_en": "Shirokane-takanawa",
    "ward": "Minato",
    "operator": "東京地下鉄"
  },
  {
    "id": 7912711175,
    "lat": 35.6386825,
    "lon": 139.7400118,
    "name": "泉岳寺",
    "name_en": "Sengakuji",
    "ward": "Minato",
    "operator": "京浜急行電鉄"
  },
  {
    "id": 7921767695,
    "lat": 35.6567438,
    "lon": 139.7553648,
    "name": "大門",
    "name_en": "Daimon",
    "ward": "Minato",
    "operator": "東京都交通局"
  },
  {
    "id": 236579696,
    "lat": 35.7013007,
    "lon": 139.7002421,
    "name": "新大久保",
    "name_en": "Shin-Ōkubo",
    "ward": "Shinjuku",
    "operator": "東日本旅客鉄道"
  },
  {
    "id": 281417661,
    "lat": 35.6886028,
    "lon": 139.699177,
    "name": "新線新宿",
    "name_en": "Shinsen-Shinjuku",
    "ward": "Shinjuku"
  },
  {
    "id": 475369200,
    "lat": 35.6992849,
    "lon": 139.7184084,
    "name": "若松河田",
    "name_en": "Wakamatsu-kawada",
    "ward": "Shinjuku",
    "operator": "東京都交通局"
  },
  {
    "id": 1926277346,
    "lat": 35.6922273,
    "lon": 139.7006009,
    "name": "新宿",
    "name_en": "Shinjuku",
    "ward": "Shinjuku",
    "operator": "東京地下鉄"
  },
  {
    "id": 1950328487,
    "lat": 35.7106637,
    "lon": 139.6859133,
    "name": "落合",
    "name_en": "Ochiai",
    "ward": "Shinjuku",
    "operator": "東京地下鉄"
  },
  {
    "id": 1951953898,
    "lat": 35.698933,
    "lon": 139.707695,
    "name": "東新宿",
    "name_en": "Higashi-shinjuku",
    "ward": "Shinjuku",
    "operator": "東京地下鉄"
  },
  {
    "id": 2389061844,
    "lat": 35.6890683,
    "lon": 139.7007324,
    "name": "新宿",
    "name_en": "Shinjuku",
    "ward": "Shinjuku",
    "operator": "東日本旅客鉄道"
  },
  {
    "id": 2389061846,
    "lat": 35.6902156,
    "lon": 139.6996243,
    "name": "新宿",
    "name_en": "Shinjuku",
    "ward": "Shinjuku",
    "operator": "小田急電鉄"
  },
  {
    "id": 2389826102,
    "lat": 35.6931366,
    "lon": 139.6991763,
    "name": "新宿西口",
    "name_en": "Shinjuku-nishiguchi",
    "ward": "Shinjuku",
    "operator": "東京都交通局"
  },
  {
    "id": 2389826186,
    "lat": 35.6994561,
    "lon": 139.7255744,
    "name": "牛込柳町",
    "name_en": "Ushigome-yanagicho",
    "ward": "Shinjuku",
    "operator": "東京都交通局"
  },
  {
    "id": 2389826225,
    "lat": 35.7009139,
    "lon": 139.7359501,
    "name": "牛込神楽坂",
    "name_en": "Ushigome-kagurazaka",
    "ward": "Shinjuku",
    "operator": "東京都交通局"
  },
  {
    "id": 2559434165,
    "lat": 35.7126401,
    "lon": 139.7038744,
    "name": "高田馬場",
    "name_en": "Takadanobaba",
    "ward": "Shinjuku",
    "operator": "西武鉄道"
  },
  {
    "id": 2559434166,
    "lat": 35.7126839,
    "lon": 139.7036425,
    "name": "高田馬場",
    "name_en": "Takadanobaba",
    "ward": "Shinjuku",
    "operator": "東日本旅客鉄道"
  },
  {
    "id": 2822191201,
    "lat": 35.6849915,
    "lon": 139.7299237,
    "name": "四ツ谷",
    "name_en": "Yotsuya",
    "ward": "Shinjuku",
    "operator": "東京地下鉄"
  },
  {
    "id": 5392079473,
    "lat": 35.6855979,
    "lon": 139.7295015,
    "name": "四ツ谷",
    "name_en": "Yotsuya",
    "ward": "Shinjuku"
  },
  {
    "id": 5406685207,
    "lat": 35.6932032,
    "lon": 139.7366562,
    "name": "市ケ谷",
    "name_en": "Ichigaya",
    "ward": "Shinjuku",
    "operator": "東京メト"
  },
  {
    "id": 5406690065,
    "lat": 35.7015405,
    "lon": 139.7436346,
    "name": "飯田橋",
    "name_en": "Iidabashi",
    "ward": "Shinjuku",
    "operator": "東京地下鉄"
  },
  {
    "id": 5408169522,
    "lat": 35.6907365,
    "lon": 139.7047597,
    "name": "新宿三丁目",
    "name_en": "Shinjuku-sanchome",
    "ward": "Shinjuku",
    "operator": "東京地下鉄"
  },
  {
    "id": 5408217482,
    "lat": 35.7133806,
    "lon": 139.7050188,
    "name": "高田馬場",
    "name_en": "Takadanobaba",
    "ward": "Shinjuku",
    "operator": "東京地下鉄"
  },
  {
    "id": 5408225235,
    "lat": 35.7058028,
    "lon": 139.721191,
    "name": "早稲田",
    "name_en": "Waseda",
    "ward": "Shinjuku",
    "operator": "東京地下鉄"
  },
  {
    "id": 5408235029,
    "lat": 35.7039298,
    "lon": 139.7341347,
    "name": "神楽坂",
    "name_en": "Kagurazaka",
    "ward": "Shinjuku"
  },
  {
    "id": 6203591949,
    "lat": 35.6906065,
    "lon": 139.692814,
    "name": "都庁前",
    "name_en": "Tochomae",
    "ward": "Shinjuku",
    "operator": "東京都交通局"
  },
  {
    "id": 6235968753,
    "lat": 35.711807,
    "lon": 139.7191703,
    "name": "早稲田",
    "name_en": "Waseda",
    "ward": "Shinjuku",
    "operator": "東京都交通局"
  },
  {
    "id": 6236061923,
    "lat": 35.7130061,
    "lon": 139.714259,
    "name": "面影橋",
    "name_en": "Omokagebashi",
    "ward": "Shinjuku",
    "operator": "東京都交通局"
  },
  {
    "id": 6280924992,
    "lat": 35.6911965,
    "lon": 139.7040936,
    "name": "新宿三丁目",
    "name_en": "Shinjuku-sanchome",
    "ward": "Shinjuku",
    "operator": "東京地下鉄"
  },
  {
    "id": 6281454731,
    "lat": 35.6906011,
    "lon": 139.70626,
    "name": "新宿三丁目",
    "name_en": "Shinjuku-sanchome",
    "ward": "Shinjuku",
    "operator": "東京都交通局"
  },
  {
    "id": 6283002002,
    "lat": 35.6891301,
    "lon": 139.7010645,
    "name": "新宿",
    "name_en": "Shinjuku",
    "ward": "Shinjuku",
    "operator": "JR東日本"
  },
  {
    "id": 6283010875,
    "lat": 35.6960899,
    "lon": 139.7000075,
    "name": "西武新宿",
    "name_en": "Seibu-Shinjuku",
    "ward": "Shinjuku",
    "operator": "西武鉄道"
  },
  {
    "id": 6283384525,
    "lat": 35.6905828,
    "lon": 139.6991102,
    "name": "新宿",
    "name_en": "Shinjuku",
    "ward": "Shinjuku"
  },
  {
    "id": 6548175855,
    "lat": 35.6978967,
    "lon": 139.7075443,
    "name": "東新宿",
    "name_en": "Higashi-shinjuku",
    "ward": "Shinjuku",
    "operator": "東京都交通局"
  },
  {
    "id": 7430368356,
    "lat": 35.7157663,
    "lon": 139.6954383,
    "name": "下落合",
    "name_en": "Shimo-Ochiai",
    "ward": "Shinjuku",
    "operator": "西武鉄道"
  },
  {
    "id": 7430377036,
    "lat": 35.7150887,
    "lon": 139.686289,
    "name": "中井",
    "name_en": "Nakai",
    "ward": "Shinjuku",
    "operator": "西武鉄道"
  },
  {
    "id": 7761779877,
    "lat": 35.6898839,
    "lon": 139.6845183,
    "name": "西新宿五丁目",
    "name_en": "Nishi-shinjuku-gochome",
    "ward": "Shinjuku",
    "operator": "東京都交通局"
  },
  {
    "id": 7775803878,
    "lat": 35.7079347,
    "lon": 139.7090404,
    "name": "西早稲田",
    "name_en": "Nishi-waseda",
    "ward": "Shinjuku",
    "operator": "東京地下鉄"
  },
  {
    "id": 7786715962,
    "lat": 35.6885735,
    "lon": 139.7107396,
    "name": "新宿御苑前",
    "name_en": "Shinjuku-gyoemmae",
    "ward": "Shinjuku",
    "operator": "東京地下鉄"
  },
  {
    "id": 7786715967,
    "lat": 35.687988,
    "lon": 139.7205752,
    "name": "四谷三丁目",
    "name_en": "Yotsuya-sanchome",
    "ward": "Shinjuku",
    "operator": "東京地下鉄"
  },
  {
    "id": 7786715968,
    "lat": 35.6944315,
    "lon": 139.6927667,
    "name": "西新宿",
    "name_en": "Nishi-shinjuku",
    "ward": "Shinjuku",
    "operator": "東京地下鉄"
  },
  {
    "id": 7791591084,
    "lat": 35.7232248,
    "lon": 139.6835782,
    "name": "落合南長崎",
    "name_en": "Ochiai-minami-nagasaki",
    "ward": "Shinjuku",
    "operator": "東京都交通局"
  },
  {
    "id": 7791605891,
    "lat": 35.714067,
    "lon": 139.6863482,
    "name": "中井",
    "name_en": "Nakai",
    "ward": "Shinjuku",
    "operator": "東京都交通局"
  },
  {
    "id": 7791605903,
    "lat": 35.6924146,
    "lon": 139.7228634,
    "name": "曙橋",
    "name_en": "Akebonobashi",
    "ward": "Shinjuku",
    "operator": "東京都交通局"
  },
  {
    "id": 7865838639,
    "lat": 35.6800236,
    "lon": 139.7204947,
    "name": "信濃町",
    "name_en": "Shinanomachi",
    "ward": "Shinjuku",
    "operator": "東日本旅客鉄道"
  },
  {
    "id": 7865838640,
    "lat": 35.7007776,
    "lon": 139.6973178,
    "name": "大久保",
    "name_en": "Okubo",
    "ward": "Shinjuku",
    "operator": "東日本旅客鉄道"
  },
  {
    "id": 236578383,
    "lat": 35.7069531,
    "lon": 139.7746303,
    "name": "御徒町",
    "name_en": "Okachimachi",
    "ward": "Taito",
    "operator": "東日本旅客鉄道"
  },
  {
    "id": 236578444,
    "lat": 35.7134128,
    "lon": 139.7765418,
    "name": "上野",
    "name_en": "Ueno",
    "ward": "Taito",
    "operator": "東日本旅客鉄道"
  },
  {
    "id": 236578577,
    "lat": 35.7217035,
    "lon": 139.7779166,
    "name": "鶯谷",
    "name_en": "Uguisudani",
    "ward": "Taito",
    "operator": "東日本旅客鉄道"
  },
  {
    "id": 2407466991,
    "lat": 35.7109406,
    "lon": 139.7735044,
    "name": "京成上野",
    "name_en": "Keisei-Ueno",
    "ward": "Taito",
    "operator": "京成電鉄"
  },
  {
    "id": 3666779220,
    "lat": 35.7119514,
    "lon": 139.7983683,
    "name": "浅草",
    "name_en": "Asakusa",
    "ward": "Taito",
    "operator": "東武鉄道"
  },
  {
    "id": 5411585752,
    "lat": 35.7064914,
    "lon": 139.7761952,
    "name": "仲御徒町",
    "name_en": "Naka-okachimachi",
    "ward": "Taito",
    "operator": "東京地下鉄"
  },
  {
    "id": 6199814789,
    "lat": 35.7079766,
    "lon": 139.7732996,
    "name": "上野御徒町",
    "name_en": "Ueno-okachimachi",
    "ward": "Taito",
    "operator": "東京都交通局"
  },
  {
    "id": 6209017478,
    "lat": 35.7070597,
    "lon": 139.7818428,
    "name": "新御徒町",
    "name_en": "Shin-okachimachi",
    "ward": "Taito",
    "operator": "東京都交通局"
  },
  {
    "id": 6209071059,
    "lat": 35.7070114,
    "lon": 139.7820289,
    "name": "新御徒町",
    "name_en": "Shin-Okachimachi",
    "ward": "Taito",
    "operator": "首都圏新都市鉄道"
  },
  {
    "id": 6237151013,
    "lat": 35.7108423,
    "lon": 139.7978163,
    "name": "浅草",
    "name_en": "Asakusa",
    "ward": "Taito",
    "operator": "東京地下鉄"
  },
  {
    "id": 7412555523,
    "lat": 35.7136174,
    "lon": 139.792416,
    "name": "浅草",
    "name_en": "Asakusa",
    "ward": "Taito",
    "operator": "首都圏新都市鉄道"
  },
  {
    "id": 7786715956,
    "lat": 35.7078328,
    "lon": 139.7729909,
    "name": "上野広小路",
    "name_en": "Ueno-hirokoji",
    "ward": "Taito",
    "operator": "東京地下鉄"
  },
  {
    "id": 7786715957,
    "lat": 35.7117081,
    "lon": 139.7761542,
    "name": "上野",
    "name_en": "Ueno",
    "ward": "Taito",
    "operator": "東京地下鉄"
  },
  {
    "id": 7786715958,
    "lat": 35.7113867,
    "lon": 139.7826851,
    "name": "稲荷町",
    "name_en": "Inaricho",
    "ward": "Taito",
    "operator": "東京地下鉄"
  },
  {
    "id": 7786715959,
    "lat": 35.709842,
    "lon": 139.7907747,
    "name": "田原町",
    "name_en": "Tawaramachi",
    "ward": "Taito",
    "operator": "東京地下鉄"
  },
  {
    "id": 7786715981,
    "lat": 35.7118212,
    "lon": 139.7775694,
    "name": "上野",
    "name_en": "Ueno",
    "ward": "Taito",
    "operator": "東京地下鉄"
  },
  {
    "id": 7786715982,
    "lat": 35.720709,
    "lon": 139.7845821,
    "name": "入谷",
    "name_en": "Iriya",
    "ward": "Taito",
    "operator": "東京地下鉄"
  },
  {
    "id": 7786715983,
    "lat": 35.7295502,
    "lon": 139.7913004,
    "name": "三ノ輪",
    "name_en": "Minowa",
    "ward": "Taito",
    "operator": "東京地下鉄"
  },
  {
    "id": 7791591075,
    "lat": 35.6973915,
    "lon": 139.7863101,
    "name": "浅草橋",
    "name_en": "Asakusabashi",
    "ward": "Taito",
    "operator": "東京都交通局"
  },
  {
    "id": 7791591076,
    "lat": 35.7032122,
    "lon": 139.790939,
    "name": "蔵前",
    "name_en": "Kuramae",
    "ward": "Taito",
    "operator": "東京都交通局"
  },
  {
    "id": 7791605886,
    "lat": 35.708959,
    "lon": 139.7965668,
    "name": "浅草",
    "name_en": "Asakusa",
    "ward": "Taito",
    "operator": "東京都交通局"
  },
  {
    "id": 7791605897,
    "lat": 35.7055187,
    "lon": 139.7924102,
    "name": "蔵前",
    "name_en": "Kuramae",
    "ward": "Taito",
    "operator": "東京都交通局"
  },
  {
    "id": 7865838637,
    "lat": 35.6974024,
    "lon": 139.784686,
    "name": "浅草橋",
    "name_en": "Asakusabashi",
    "ward": "Taito",
    "operator": "東日本旅客鉄道"
  },
  {
    "id": 13207583283,
    "lat": 35.7130782,
    "lon": 139.7773343,
    "name": "上野",
    "name_en": "Ueno",
    "ward": "Taito",
    "operator": "東日本旅客鉄道"
  },
  {
    "id": 2545151221,
    "lat": 35.7181883,
    "lon": 139.8197495,
    "name": "京成曳舟",
    "name_en": "Keisei Hikifune",
    "ward": "Sumida",
    "operator": "京成電鉄"
  },
  {
    "id": 2558121937,
    "lat": 35.6957996,
    "lon": 139.7929596,
    "name": "両国",
    "name_en": "Ryogoku",
    "ward": "Sumida",
    "operator": "東日本旅客鉄道"
  },
  {
    "id": 3558471784,
    "lat": 35.7070671,
    "lon": 139.8318015,
    "name": "東あずま",
    "name_en": "Higashi-azuma",
    "ward": "Sumida",
    "operator": "東武鉄道"
  },
  {
    "id": 3558471786,
    "lat": 35.7183056,
    "lon": 139.8167501,
    "name": "曳舟",
    "name_en": "Hikifune",
    "ward": "Sumida",
    "operator": "東武鉄道"
  },
  {
    "id": 3558471792,
    "lat": 35.7102802,
    "lon": 139.8277754,
    "name": "小村井",
    "name_en": "Omurai",
    "ward": "Sumida",
    "operator": "東武鉄道"
  },
  {
    "id": 3666779222,
    "lat": 35.7106916,
    "lon": 139.8110139,
    "name": "とうきょうスカイツリー",
    "name_en": "TOKYO SKYTREE",
    "ward": "Sumida",
    "operator": "東武鉄道"
  },
  {
    "id": 3666792383,
    "lat": 35.7102863,
    "lon": 139.8132943,
    "name": "押上〈スカイツリー前〉",
    "name_en": "Oshiage 'SKYTREE'",
    "ward": "Sumida",
    "operator": "京成電鉄;東京都交通局"
  },
  {
    "id": 6547961657,
    "lat": 35.6963122,
    "lon": 139.8150431,
    "name": "錦糸町",
    "name_en": "Kinshicho",
    "ward": "Sumida",
    "operator": "東京地下鉄"
  },
  {
    "id": 7482077157,
    "lat": 35.7243341,
    "lon": 139.8193077,
    "name": "東向島",
    "name_en": "Higashi-mukojima",
    "ward": "Sumida",
    "operator": "東武鉄道"
  },
  {
    "id": 7482077160,
    "lat": 35.7337353,
    "lon": 139.8205233,
    "name": "鐘ヶ淵",
    "name_en": "Kanegafuchi",
    "ward": "Sumida",
    "operator": "東武鉄道"
  },
  {
    "id": 7791605885,
    "lat": 35.7085609,
    "lon": 139.8043487,
    "name": "本所吾妻橋",
    "name_en": "Honjo-azumabashi",
    "ward": "Sumida",
    "operator": "東京都交通局"
  },
  {
    "id": 7791605896,
    "lat": 35.6968538,
    "lon": 139.7974284,
    "name": "両国",
    "name_en": "Ryogoku",
    "ward": "Sumida",
    "operator": "東京都交通局"
  },
  {
    "id": 7791605928,
    "lat": 35.6884156,
    "lon": 139.806123,
    "name": "菊川",
    "name_en": "Kikukawa",
    "ward": "Sumida",
    "operator": "東京都交通局"
  },
  {
    "id": 7865838635,
    "lat": 35.6967489,
    "lon": 139.8139563,
    "name": "錦糸町",
    "name_en": "Kinshicho",
    "ward": "Sumida",
    "operator": "東日本旅客鉄道"
  },
  {
    "id": 7913349582,
    "lat": 35.727185,
    "lon": 139.8282344,
    "name": "八広",
    "name_en": "Yahiro",
    "ward": "Sumida",
    "operator": "京成電鉄"
  },
  {
    "id": 7992223096,
    "lat": 35.7106337,
    "lon": 139.8128217,
    "name": "押上〈スカイツリー前〉",
    "name_en": "Oshiage 'SKYTREE'",
    "ward": "Sumida"
  },
  {
    "id": 251465504,
    "lat": 35.6722878,
    "lon": 139.7950674,
    "name": "門前仲町",
    "name_en": "Monzen-nakacho",
    "ward": "Koto",
    "operator": "東京地下鉄"
  },
  {
    "id": 1152742616,
    "lat": 35.6973248,
    "lon": 139.8267172,
    "name": "亀戸",
    "name_en": "Kameido",
    "ward": "Koto",
    "operator": "東日本旅客鉄道"
  },
  {
    "id": 1923746850,
    "lat": 35.6683446,
    "lon": 139.8318642,
    "name": "南砂町",
    "name_en": "Minami-sunamachi",
    "ward": "Koto",
    "operator": "東京地下鉄"
  },
  {
    "id": 1923746858,
    "lat": 35.6695961,
    "lon": 139.8174761,
    "name": "東陽町",
    "name_en": "Toyocho",
    "ward": "Koto",
    "operator": "東京地下鉄"
  },
  {
    "id": 1923761823,
    "lat": 35.669416,
    "lon": 139.8065455,
    "name": "木場",
    "name_en": "Kiba",
    "ward": "Koto",
    "operator": "東京地下鉄"
  },
  {
    "id": 2714358960,
    "lat": 35.6461392,
    "lon": 139.8272901,
    "name": "新木場",
    "name_en": "Shin-kiba",
    "ward": "Koto",
    "operator": "東京臨海高速鉄道"
  },
  {
    "id": 2729417341,
    "lat": 35.6589236,
    "lon": 139.8171968,
    "name": "潮見",
    "name_en": "Shiomi",
    "ward": "Koto",
    "operator": "東日本旅客鉄道"
  },
  {
    "id": 2729417356,
    "lat": 35.6679059,
    "lon": 139.7926094,
    "name": "越中島",
    "name_en": "Etchūjima",
    "ward": "Koto",
    "operator": "東日本旅客鉄道"
  },
  {
    "id": 3349839243,
    "lat": 35.6247543,
    "lon": 139.7813002,
    "name": "青海",
    "name_en": "Aomi",
    "ward": "Koto",
    "operator": "ゆりかもめ"
  },
  {
    "id": 3349902308,
    "lat": 35.621401,
    "lon": 139.7730812,
    "name": "東京国際クルーズターミナル",
    "name_en": "Tokyo International Cruise Terminal",
    "ward": "Koto",
    "operator": "ゆりかもめ"
  },
  {
    "id": 3349961077,
    "lat": 35.6345562,
    "lon": 139.7932562,
    "name": "有明",
    "name_en": "Ariake",
    "ward": "Koto",
    "operator": "ゆりかもめ"
  },
  {
    "id": 3349961078,
    "lat": 35.6401034,
    "lon": 139.7887923,
    "name": "有明テニスの森",
    "name_en": "Ariake-Tennis-no-mori",
    "ward": "Koto",
    "operator": "ゆりかもめ"
  },
  {
    "id": 3349961080,
    "lat": 35.630197,
    "lon": 139.7913701,
    "name": "東京ビッグサイト",
    "name_en": "Tokyo Big Sight",
    "ward": "Koto",
    "operator": "ゆりかもめ"
  },
  {
    "id": 3349961082,
    "lat": 35.645771,
    "lon": 139.7857992,
    "name": "市場前",
    "name_en": "Shijō-mae",
    "ward": "Koto",
    "operator": "ゆりかもめ"
  },
  {
    "id": 3349961084,
    "lat": 35.6487704,
    "lon": 139.790212,
    "name": "新豊洲",
    "name_en": "Shin-toyosu",
    "ward": "Koto",
    "operator": "ゆりかもめ"
  },
  {
    "id": 3349961087,
    "lat": 35.6175656,
    "lon": 139.7794436,
    "name": "テレコムセンター",
    "name_en": "Telecom Center",
    "ward": "Koto",
    "operator": "ゆりかもめ"
  },
  {
    "id": 3349961088,
    "lat": 35.6537483,
    "lon": 139.7954103,
    "name": "豊洲",
    "name_en": "Toyosu",
    "ward": "Koto",
    "operator": "ゆりかもめ"
  },
  {
    "id": 3558471790,
    "lat": 35.7000853,
    "lon": 139.8335333,
    "name": "亀戸水神",
    "name_en": "Kameidosuijin",
    "ward": "Koto",
    "operator": "東武鉄道"
  },
  {
    "id": 3730429174,
    "lat": 35.6461534,
    "lon": 139.8274057,
    "name": "新木場",
    "name_en": "Shin-Kiba",
    "ward": "Koto",
    "operator": "東日本旅客鉄道"
  },
  {
    "id": 5594490948,
    "lat": 35.6889959,
    "lon": 139.8156854,
    "name": "住吉",
    "name_en": "Sumiyoshi",
    "ward": "Koto",
    "operator": "東京地下鉄;東京都交通局"
  },
  {
    "id": 5594511143,
    "lat": 35.6879977,
    "lon": 139.7970443,
    "name": "森下",
    "name_en": "Morishita",
    "ward": "Koto",
    "operator": "東京都交通局"
  },
  {
    "id": 5594511144,
    "lat": 35.6820504,
    "lon": 139.7987644,
    "name": "清澄白河",
    "name_en": "Kiyosumi-shirakawa",
    "ward": "Koto",
    "operator": "東京地下鉄;東京都交通局"
  },
  {
    "id": 6063546675,
    "lat": 35.6976987,
    "lon": 139.827138,
    "name": "亀戸",
    "name_en": "Kameido",
    "ward": "Koto",
    "operator": "東武鉄道"
  },
  {
    "id": 6211575889,
    "lat": 35.64073,
    "lon": 139.8036235,
    "name": "東雲",
    "name_en": "Shinonome",
    "ward": "Koto",
    "operator": "東京臨海高速鉄道"
  },
  {
    "id": 6211575890,
    "lat": 35.6270927,
    "lon": 139.7780908,
    "name": "東京テレポート",
    "name_en": "Tokyo Teleport",
    "ward": "Koto",
    "operator": "東京臨海高速鉄道"
  },
  {
    "id": 6214783969,
    "lat": 35.6344374,
    "lon": 139.7917555,
    "name": "国際展示場",
    "name_en": "Kokusai-tenjijo",
    "ward": "Koto",
    "operator": "東京臨海高速鉄道"
  },
  {
    "id": 6214910740,
    "lat": 35.6459052,
    "lon": 139.8266597,
    "name": "新木場",
    "name_en": "Shin-kiba",
    "ward": "Koto",
    "operator": "東京地下鉄"
  },
  {
    "id": 6274211194,
    "lat": 35.6549298,
    "lon": 139.796174,
    "name": "豊洲",
    "name_en": "Toyosu",
    "ward": "Koto",
    "operator": "東京地下鉄"
  },
  {
    "id": 6335374288,
    "lat": 35.6454772,
    "lon": 139.8107392,
    "name": "辰巳",
    "name_en": "Tatsumi",
    "ward": "Koto",
    "operator": "東京地下鉄"
  },
  {
    "id": 7791605895,
    "lat": 35.6726188,
    "lon": 139.7950012,
    "name": "門前仲町",
    "name_en": "Monzen-nakacho",
    "ward": "Koto",
    "operator": "東京都交通局"
  },
  {
    "id": 7791605910,
    "lat": 35.6897695,
    "lon": 139.835076,
    "name": "大島",
    "name_en": "Ojima",
    "ward": "Koto",
    "operator": "東京都交通局"
  },
  {
    "id": 7791605911,
    "lat": 35.6902967,
    "lon": 139.8459524,
    "name": "東大島",
    "name_en": "Higashi-ojima",
    "ward": "Koto",
    "operator": "東京都交通局"
  },
  {
    "id": 7791605927,
    "lat": 35.6893724,
    "lon": 139.8266345,
    "name": "西大島",
    "name_en": "Nishi-ojima",
    "ward": "Koto",
    "operator": "東京都交通局"
  },
  {
    "id": 241815384,
    "lat": 35.6193903,
    "lon": 139.7284866,
    "name": "大崎",
    "name_en": "Osaki",
    "ward": "Shinagawa",
    "operator": "東日本旅客鉄道;東京臨海高速鉄道"
  },
  {
    "id": 266085875,
    "lat": 35.6325078,
    "lon": 139.7157717,
    "name": "目黒",
    "name_en": "Meguro",
    "ward": "Shinagawa",
    "operator": "東京地下鉄"
  },
  {
    "id": 427973657,
    "lat": 35.6262562,
    "lon": 139.7236303,
    "name": "五反田",
    "name_en": "Gotanda",
    "ward": "Shinagawa",
    "operator": "東日本旅客鉄道"
  },
  {
    "id": 2099275526,
    "lat": 35.616206,
    "lon": 139.7150774,
    "name": "戸越銀座",
    "name_en": "Togoshi-ginza",
    "ward": "Shinagawa"
  },
  {
    "id": 2550872406,
    "lat": 35.6220705,
    "lon": 139.7392733,
    "name": "北品川",
    "name_en": "Kitashinagawa",
    "ward": "Shinagawa",
    "operator": "京浜急行電鉄"
  },
  {
    "id": 2550872520,
    "lat": 35.6050235,
    "lon": 139.7422644,
    "name": "鮫洲",
    "name_en": "Samezu",
    "ward": "Shinagawa",
    "operator": "京浜急行電鉄"
  },
  {
    "id": 2550872531,
    "lat": 35.5986986,
    "lon": 139.7389803,
    "name": "立会川",
    "name_en": "Tachiaigawa",
    "ward": "Shinagawa",
    "operator": "京浜急行電鉄"
  },
  {
    "id": 2558121925,
    "lat": 35.6340669,
    "lon": 139.7157332,
    "name": "目黒",
    "name_en": "Meguro",
    "ward": "Shinagawa",
    "operator": "東日本旅客鉄道"
  },
  {
    "id": 2926897392,
    "lat": 35.6076529,
    "lon": 139.734319,
    "name": "大井町",
    "name_en": "Oimachi",
    "ward": "Shinagawa",
    "operator": "東急電鉄"
  },
  {
    "id": 3547330606,
    "lat": 35.6063813,
    "lon": 139.7348903,
    "name": "大井町",
    "name_en": "Ōimachi",
    "ward": "Shinagawa",
    "operator": "東日本旅客鉄道"
  },
  {
    "id": 3692259388,
    "lat": 35.6018658,
    "lon": 139.7216714,
    "name": "西大井",
    "name_en": "Nishi-Ōi",
    "ward": "Shinagawa",
    "operator": "東日本旅客鉄道"
  },
  {
    "id": 4406782074,
    "lat": 35.5951297,
    "lon": 139.7470566,
    "name": "大井競馬場前",
    "name_en": "Oikeibajo-Mae",
    "ward": "Shinagawa",
    "operator": "東京モノレール"
  },
  {
    "id": 4406782075,
    "lat": 35.6227359,
    "lon": 139.7507947,
    "name": "天王洲アイル",
    "name_en": "Tennozu Isle",
    "ward": "Shinagawa",
    "operator": "東京モノレール"
  },
  {
    "id": 4409431301,
    "lat": 35.6038557,
    "lon": 139.7077399,
    "name": "荏原町",
    "name_en": "Ebara-machi",
    "ward": "Shinagawa",
    "operator": "東急電鉄"
  },
  {
    "id": 5318592733,
    "lat": 35.595856,
    "lon": 139.7577909,
    "name": "東京貨物ターミナル",
    "name_en": "Tokyo Freight Terminal",
    "ward": "Shinagawa",
    "operator": "JR貨物"
  },
  {
    "id": 6057744442,
    "lat": 35.6089107,
    "lon": 139.7181853,
    "name": "戸越公園",
    "name_en": "Togoshi-koen",
    "ward": "Shinagawa",
    "operator": "東急電鉄"
  },
  {
    "id": 6057744443,
    "lat": 35.6059262,
    "lon": 139.7128829,
    "name": "中延",
    "name_en": "Nakanobu",
    "ward": "Shinagawa",
    "operator": "東急電鉄"
  },
  {
    "id": 6057744444,
    "lat": 35.6087809,
    "lon": 139.7262498,
    "name": "下神明",
    "name_en": "Shimo-simmei",
    "ward": "Shinagawa"
  },
  {
    "id": 6211678481,
    "lat": 35.6205792,
    "lon": 139.7508785,
    "name": "天王洲アイル",
    "name_en": "Tennozu Isle",
    "ward": "Shinagawa",
    "operator": "東京臨海高速鉄道"
  },
  {
    "id": 6211678482,
    "lat": 35.6097199,
    "lon": 139.7498775,
    "name": "品川シーサイド",
    "name_en": "Shinagawa Seaside",
    "ward": "Shinagawa",
    "operator": "東京臨海高速鉄道"
  },
  {
    "id": 6211678483,
    "lat": 35.6074432,
    "lon": 139.7344119,
    "name": "大井町",
    "name_en": "Oimachi",
    "ward": "Shinagawa",
    "operator": "東京臨海高速鉄道"
  },
  {
    "id": 6289655849,
    "lat": 35.6205612,
    "lon": 139.7045734,
    "name": "武蔵小山",
    "name_en": "Musashi-koyama",
    "ward": "Shinagawa"
  },
  {
    "id": 6289699814,
    "lat": 35.6253418,
    "lon": 139.713046,
    "name": "不動前",
    "name_en": "Fudo-mae",
    "ward": "Shinagawa"
  },
  {
    "id": 6289932019,
    "lat": 35.604888,
    "lon": 139.7025878,
    "name": "旗の台",
    "name_en": "Hatanodai",
    "ward": "Shinagawa"
  },
  {
    "id": 7791591080,
    "lat": 35.614502,
    "lon": 139.7163642,
    "name": "戸越",
    "name_en": "Togoshi",
    "ward": "Shinagawa",
    "operator": "東京都交通局"
  },
  {
    "id": 7791605887,
    "lat": 35.605254,
    "lon": 139.7136531,
    "name": "中延",
    "name_en": "Nakanobu",
    "ward": "Shinagawa",
    "operator": "東京都交通局"
  },
  {
    "id": 7791605888,
    "lat": 35.6270895,
    "lon": 139.7242137,
    "name": "五反田",
    "name_en": "Gotanda",
    "ward": "Shinagawa",
    "operator": "東京都交通局"
  },
  {
    "id": 7808705900,
    "lat": 35.6225443,
    "lon": 139.7225696,
    "name": "大崎広小路",
    "name_en": "Osakihirokoji",
    "ward": "Shinagawa"
  },
  {
    "id": 7834575753,
    "lat": 35.6165106,
    "lon": 139.7414646,
    "name": "新馬場",
    "name_en": "Shimbamba",
    "ward": "Shinagawa",
    "operator": "京浜急行電鉄"
  },
  {
    "id": 7834719318,
    "lat": 35.5876986,
    "lon": 139.7353937,
    "name": "大森海岸",
    "name_en": "Ōmorikaigan",
    "ward": "Shinagawa",
    "operator": "京浜急行電鉄"
  },
  {
    "id": 7834719324,
    "lat": 35.6088735,
    "lon": 139.7430769,
    "name": "青物横丁",
    "name_en": "Aomono-yokocho",
    "ward": "Shinagawa",
    "operator": "京浜急行電鉄"
  },
  {
    "id": 7899349372,
    "lat": 35.6251373,
    "lon": 139.7241399,
    "name": "五反田",
    "name_en": "Gotanda",
    "ward": "Shinagawa",
    "operator": "東急電鉄"
  },
  {
    "id": 7899349376,
    "lat": 35.6099457,
    "lon": 139.7120054,
    "name": "荏原中延",
    "name_en": "Ebara-nakanobu",
    "ward": "Shinagawa",
    "operator": "東急電鉄"
  },
  {
    "id": 7947512245,
    "lat": 35.61547,
    "lon": 139.6987365,
    "name": "西小山",
    "name_en": "Nishi-koyama",
    "ward": "Shinagawa"
  },
  {
    "id": 9216207028,
    "lat": 35.6051865,
    "lon": 139.7033846,
    "name": "旗の台",
    "name_en": "Hatanodai",
    "ward": "Shinagawa"
  },
  {
    "id": 2206530973,
    "lat": 35.5491583,
    "lon": 139.7845527,
    "name": "羽田空港第1ターミナル",
    "name_en": "Haneda Airport Terminal 1",
    "ward": "Ota",
    "operator": "東京モノレール"
  },
  {
    "id": 2206531138,
    "lat": 35.5508205,
    "lon": 139.7882659,
    "name": "羽田空港第2ターミナル",
    "name_en": "Haneda Airport Terminal 2",
    "ward": "Ota",
    "operator": "東京モノレール"
  },
  {
    "id": 2206531158,
    "lat": 35.5428212,
    "lon": 139.7868344,
    "name": "新整備場",
    "name_en": "Shinseibijo",
    "ward": "Ota",
    "operator": "東京モノレール"
  },
  {
    "id": 2496988966,
    "lat": 35.5438875,
    "lon": 139.7686524,
    "name": "羽田空港第3ターミナル",
    "name_en": "Haneda Airport Terminal 3",
    "ward": "Ota",
    "operator": "東京モノレール株式会社"
  },
  {
    "id": 2546879670,
    "lat": 35.5613307,
    "lon": 139.7241595,
    "name": "京急蒲田",
    "name_en": "Keikyu Kamata",
    "ward": "Ota",
    "operator": "京浜急行電鉄"
  },
  {
    "id": 2702380569,
    "lat": 35.5896908,
    "lon": 139.6687943,
    "name": "多摩川",
    "name_en": "Tamagawa",
    "ward": "Ota",
    "operator": "東京急行電鉄"
  },
  {
    "id": 3547330602,
    "lat": 35.5620151,
    "lon": 139.7158191,
    "name": "蒲田",
    "name_en": "Kamata",
    "ward": "Ota",
    "operator": "東日本旅客鉄道"
  },
  {
    "id": 3547330608,
    "lat": 35.5884735,
    "lon": 139.7279334,
    "name": "大森",
    "name_en": "Ōmori",
    "ward": "Ota",
    "operator": "東日本旅客鉄道"
  },
  {
    "id": 4406782069,
    "lat": 35.5489693,
    "lon": 139.7543773,
    "name": "天空橋",
    "name_en": "Tenkubashi",
    "ward": "Ota",
    "operator": "東京モノレール"
  },
  {
    "id": 4406782070,
    "lat": 35.5552802,
    "lon": 139.7536818,
    "name": "整備場",
    "name_en": "Seibijo",
    "ward": "Ota",
    "operator": "東京モノレール"
  },
  {
    "id": 4406782071,
    "lat": 35.5708971,
    "lon": 139.750008,
    "name": "昭和島",
    "name_en": "Showajima",
    "ward": "Ota",
    "operator": "東京モノレール"
  },
  {
    "id": 4406782073,
    "lat": 35.5816815,
    "lon": 139.7491265,
    "name": "流通センター",
    "name_en": "Ryutsu Center",
    "ward": "Ota",
    "operator": "東京モノレール"
  },
  {
    "id": 5021413969,
    "lat": 36.2711282,
    "lon": 139.3125327,
    "name": "木崎",
    "name_en": "Kizaki",
    "ward": "Ota"
  },
  {
    "id": 6050989579,
    "lat": 36.2730451,
    "lon": 139.2815566,
    "name": "世良田",
    "name_en": "Serada",
    "ward": "Ota"
  },
  {
    "id": 6254493955,
    "lat": 35.5968896,
    "lon": 139.6673676,
    "name": "田園調布",
    "name_en": "Den-en-chofu",
    "ward": "Ota",
    "operator": "東京急行電鉄"
  },
  {
    "id": 6289850738,
    "lat": 35.6074155,
    "lon": 139.6857012,
    "name": "大岡山",
    "name_en": "Ookayama",
    "ward": "Ota"
  },
  {
    "id": 6289932022,
    "lat": 35.6065472,
    "lon": 139.6928877,
    "name": "北千束",
    "name_en": "Kita-senzoku",
    "ward": "Ota"
  },
  {
    "id": 6291466014,
    "lat": 35.5617519,
    "lon": 139.7147258,
    "name": "蒲田",
    "name_en": "Kamata",
    "ward": "Ota",
    "operator": "東急電鉄"
  },
  {
    "id": 6804657899,
    "lat": 36.3329724,
    "lon": 139.3411701,
    "name": "治良門橋",
    "name_en": "Jiroembashi",
    "ward": "Ota"
  },
  {
    "id": 7379053850,
    "lat": 36.2791804,
    "lon": 139.4088764,
    "name": "竜舞",
    "name_en": "Ryumai",
    "ward": "Ota"
  },
  {
    "id": 7392223332,
    "lat": 36.313581,
    "lon": 139.3548272,
    "name": "三枚橋",
    "name_en": "Sammaibashi",
    "ward": "Ota"
  },
  {
    "id": 7400598540,
    "lat": 36.3589732,
    "lon": 139.315266,
    "name": "藪塚",
    "name_en": "Yabuzuka",
    "ward": "Ota"
  },
  {
    "id": 7478301445,
    "lat": 36.294102,
    "lon": 139.3787733,
    "name": "太田",
    "name_en": "Ota",
    "ward": "Ota",
    "operator": "東武鉄道"
  },
  {
    "id": 7791605889,
    "lat": 35.5967788,
    "lon": 139.7119274,
    "name": "馬込",
    "name_en": "Magome",
    "ward": "Ota",
    "operator": "東京都交通局"
  },
  {
    "id": 7791605890,
    "lat": 35.5872987,
    "lon": 139.7063115,
    "name": "西馬込",
    "name_en": "Nishi-magome",
    "ward": "Ota",
    "operator": "東京都交通局"
  },
  {
    "id": 7817272379,
    "lat": 35.5971322,
    "lon": 139.6854947,
    "name": "石川台",
    "name_en": "Ishikawa-dai",
    "ward": "Ota",
    "operator": "東急電鉄"
  },
  {
    "id": 7834193975,
    "lat": 35.5827683,
    "lon": 139.6730652,
    "name": "沼部",
    "name_en": "Numabe",
    "ward": "Ota"
  },
  {
    "id": 7834193976,
    "lat": 35.5713856,
    "lon": 139.6855952,
    "name": "下丸子",
    "name_en": "Shimomaruko",
    "ward": "Ota"
  },
  {
    "id": 7834193978,
    "lat": 35.5678616,
    "lon": 139.6924791,
    "name": "武蔵新田",
    "name_en": "Musashi-nitta",
    "ward": "Ota"
  },
  {
    "id": 7834193980,
    "lat": 35.5625766,
    "lon": 139.7002588,
    "name": "矢口渡",
    "name_en": "Yaguchi-no-watashi",
    "ward": "Ota",
    "operator": "東急電鉄"
  },
  {
    "id": 7834193982,
    "lat": 35.5754603,
    "lon": 139.6805741,
    "name": "鵜の木",
    "name_en": "Unoki",
    "ward": "Ota"
  },
  {
    "id": 7834193984,
    "lat": 35.5795927,
    "lon": 139.6856542,
    "name": "久が原",
    "name_en": "Kugahara",
    "ward": "Ota"
  },
  {
    "id": 7834298285,
    "lat": 35.5450118,
    "lon": 139.7670385,
    "name": "羽田空港第3ターミナル",
    "name_en": "Haneda Airport Terminal 3",
    "ward": "Ota",
    "operator": "京浜急行電鉄"
  },
  {
    "id": 7834562506,
    "lat": 35.54812,
    "lon": 139.7546775,
    "name": "天空橋",
    "name_en": "Tenkubashi",
    "ward": "Ota",
    "operator": "京浜急行電鉄 (Keikyu Corporation)"
  },
  {
    "id": 7834562508,
    "lat": 35.5498485,
    "lon": 139.7860924,
    "name": "羽田空港第1・第2ターミナル",
    "name_en": "Haneda Airport Terminal 1・2",
    "ward": "Ota",
    "operator": "京浜急行電鉄"
  },
  {
    "id": 7834562509,
    "lat": 35.5503099,
    "lon": 139.7467757,
    "name": "穴守稲荷",
    "name_en": "Anamori-Inari",
    "ward": "Ota",
    "operator": "京浜急行電鉄"
  },
  {
    "id": 7834562510,
    "lat": 35.5525175,
    "lon": 139.7395158,
    "name": "大鳥居",
    "name_en": "Otorii",
    "ward": "Ota",
    "operator": "京浜急行電鉄"
  },
  {
    "id": 7834562511,
    "lat": 35.5547016,
    "lon": 139.7294667,
    "name": "糀谷",
    "name_en": "Kojiya",
    "ward": "Ota",
    "operator": "京浜急行電鉄 (Keikyu Corporation)"
  },
  {
    "id": 7834719308,
    "lat": 35.5496951,
    "lon": 139.7149801,
    "name": "雑色",
    "name_en": "Zoshiki",
    "ward": "Ota",
    "operator": "京浜急行電鉄 (Keikyu Corporation)"
  },
  {
    "id": 7834719310,
    "lat": 35.5669662,
    "lon": 139.728368,
    "name": "梅屋敷",
    "name_en": "Umeyashiki",
    "ward": "Ota",
    "operator": "京浜急行電鉄"
  },
  {
    "id": 7834719312,
    "lat": 35.5725032,
    "lon": 139.7320685,
    "name": "大森町",
    "name_en": "Omorimachi",
    "ward": "Ota",
    "operator": "京浜急行電鉄"
  },
  {
    "id": 7834719314,
    "lat": 35.5787037,
    "lon": 139.7349686,
    "name": "平和島",
    "name_en": "Heiwajima",
    "ward": "Ota",
    "operator": "京浜急行電鉄"
  },
  {
    "id": 7834808028,
    "lat": 35.5406578,
    "lon": 139.7076671,
    "name": "六郷土手",
    "name_en": "Rokugodote",
    "ward": "Ota",
    "operator": "京浜急行電鉄"
  },
  {
    "id": 7899349367,
    "lat": 35.5997965,
    "lon": 139.6913023,
    "name": "洗足池",
    "name_en": "Senzoku-ike",
    "ward": "Ota",
    "operator": "東急電鉄"
  },
  {
    "id": 7899349368,
    "lat": 35.6022652,
    "lon": 139.6979521,
    "name": "長原",
    "name_en": "Nagahara",
    "ward": "Ota"
  },
  {
    "id": 7899349374,
    "lat": 35.5919901,
    "lon": 139.6810408,
    "name": "雪が谷大塚",
    "name_en": "Yukigaya-otsuka",
    "ward": "Ota",
    "operator": "東急電鉄"
  },
  {
    "id": 7899349378,
    "lat": 35.5720205,
    "lon": 139.703049,
    "name": "池上",
    "name_en": "Ikegami",
    "ward": "Ota"
  },
  {
    "id": 7899349379,
    "lat": 35.5642517,
    "lon": 139.70852,
    "name": "蓮沼",
    "name_en": "Hasunuma",
    "ward": "Ota",
    "operator": "東急電鉄"
  },
  {
    "id": 7899349381,
    "lat": 35.5729144,
    "lon": 139.6915805,
    "name": "千鳥町",
    "name_en": "Chidoricho",
    "ward": "Ota"
  },
  {
    "id": 7899349382,
    "lat": 35.5852523,
    "lon": 139.6824718,
    "name": "御嶽山",
    "name_en": "Ontakesan",
    "ward": "Ota",
    "operator": "東急電鉄"
  },
  {
    "id": 7967910518,
    "lat": 36.3083277,
    "lon": 139.4026154,
    "name": "韮川",
    "name_en": "Niragawa",
    "ward": "Ota"
  },
  {
    "id": 7967910548,
    "lat": 36.2830305,
    "lon": 139.3490785,
    "name": "細谷",
    "name_en": "Hosoya",
    "ward": "Ota"
  },
  {
    "id": 12985575683,
    "lat": 35.5574873,
    "lon": 139.7136914,
    "name": "大田",
    "name_en": "大田",
    "ward": "Ota",
    "operator": "東日本旅客鉄道株式会社"
  },
  {
    "id": 12985575684,
    "lat": 35.5565786,
    "lon": 139.7120039,
    "name": "志茂田",
    "name_en": "志茂田",
    "ward": "Ota",
    "operator": "東日本旅客鉄道株式会社"
  },
  {
    "id": 281365074,
    "lat": 35.6399444,
    "lon": 139.5984426,
    "name": "成城学園前",
    "name_en": "Seijogakuen-mae",
    "ward": "Setagaya",
    "operator": "小田急電鉄"
  },
  {
    "id": 281366410,
    "lat": 35.6561754,
    "lon": 139.6541274,
    "name": "梅ヶ丘",
    "name_en": "Umegaoka",
    "ward": "Setagaya",
    "operator": "小田急電鉄"
  },
  {
    "id": 281366428,
    "lat": 35.6432802,
    "lon": 139.6097472,
    "name": "祖師ヶ谷大蔵",
    "name_en": "Soshigaya-Okura",
    "ward": "Setagaya",
    "operator": "小田急電鉄"
  },
  {
    "id": 281366584,
    "lat": 35.6512791,
    "lon": 139.636679,
    "name": "経堂",
    "name_en": "Kyodo",
    "ward": "Setagaya",
    "operator": "小田急電鉄"
  },
  {
    "id": 281366586,
    "lat": 35.6473986,
    "lon": 139.6238215,
    "name": "千歳船橋",
    "name_en": "Chitose-Funabashi",
    "ward": "Setagaya",
    "operator": "小田急電鉄"
  },
  {
    "id": 281366971,
    "lat": 35.6535429,
    "lon": 139.6468507,
    "name": "豪徳寺",
    "name_en": "Gotokuji",
    "ward": "Setagaya",
    "operator": "小田急電鉄"
  },
  {
    "id": 1252108021,
    "lat": 35.6117897,
    "lon": 139.6268002,
    "name": "二子玉川",
    "name_en": "Futako-tamagawa",
    "ward": "Setagaya"
  },
  {
    "id": 2217212323,
    "lat": 35.6611356,
    "lon": 139.666822,
    "name": "下北沢",
    "name_en": "Shimo-Kitazawa",
    "ward": "Setagaya",
    "operator": "小田急電鉄"
  },
  {
    "id": 2217212325,
    "lat": 35.6651291,
    "lon": 139.6724982,
    "name": "東北沢",
    "name_en": "Higashi-Kitazawa",
    "ward": "Setagaya",
    "operator": "小田急電鉄"
  },
  {
    "id": 2574536692,
    "lat": 35.6054056,
    "lon": 139.6612181,
    "name": "九品仏",
    "name_en": "Kuhombutsu",
    "ward": "Setagaya",
    "operator": "東急電鉄"
  },
  {
    "id": 2574536696,
    "lat": 35.608362,
    "lon": 139.6480235,
    "name": "等々力",
    "name_en": "Todoroki",
    "ward": "Setagaya",
    "operator": "東急電鉄"
  },
  {
    "id": 2732305545,
    "lat": 35.6582913,
    "lon": 139.6615307,
    "name": "世田谷代田",
    "name_en": "Setagaya-Daita",
    "ward": "Setagaya",
    "operator": "小田急電鉄"
  },
  {
    "id": 3623712582,
    "lat": 35.6615657,
    "lon": 139.6670604,
    "name": "下北沢",
    "name_en": "Shimo-Kitazawa",
    "ward": "Setagaya",
    "operator": "京王電鉄"
  },
  {
    "id": 3623712584,
    "lat": 35.6684337,
    "lon": 139.6504275,
    "name": "明大前",
    "name_en": "Meidaimae",
    "ward": "Setagaya",
    "operator": "京王電鉄"
  },
  {
    "id": 5410120851,
    "lat": 35.6688535,
    "lon": 139.6232912,
    "name": "上北沢",
    "name_en": "Kami-kitazawa",
    "ward": "Setagaya"
  },
  {
    "id": 6289331413,
    "lat": 35.6040262,
    "lon": 139.6727375,
    "name": "奥沢",
    "name_en": "Okusawa",
    "ward": "Setagaya"
  },
  {
    "id": 6290069800,
    "lat": 35.6070357,
    "lon": 139.6537506,
    "name": "尾山台",
    "name_en": "Oyamadai",
    "ward": "Setagaya",
    "operator": "東急電鉄"
  },
  {
    "id": 6290069807,
    "lat": 35.6119862,
    "lon": 139.638886,
    "name": "上野毛",
    "name_en": "Kaminoge",
    "ward": "Setagaya",
    "operator": "東急電鉄"
  },
  {
    "id": 6443282063,
    "lat": 35.6538239,
    "lon": 139.6465157,
    "name": "山下",
    "name_en": "Yamashita",
    "ward": "Setagaya",
    "operator": "東京急行電鉄"
  },
  {
    "id": 7678485635,
    "lat": 35.6365293,
    "lon": 139.5868713,
    "name": "喜多見",
    "name_en": "Kitami",
    "ward": "Setagaya",
    "operator": "小田急電鉄"
  },
  {
    "id": 7681378384,
    "lat": 35.6661345,
    "lon": 139.6415946,
    "name": "下高井戸",
    "name_en": "Shimo-takaido",
    "ward": "Setagaya",
    "operator": "京王電鉄"
  },
  {
    "id": 7681380424,
    "lat": 35.6440586,
    "lon": 139.669068,
    "name": "三軒茶屋",
    "name_en": "Sangen-jaya",
    "ward": "Setagaya"
  },
  {
    "id": 7681383448,
    "lat": 35.6445861,
    "lon": 139.666303,
    "name": "西太子堂",
    "name_en": "Nishi-taishido",
    "ward": "Setagaya"
  },
  {
    "id": 7681383449,
    "lat": 35.6459516,
    "lon": 139.6598567,
    "name": "若林",
    "name_en": "Wakabayashi",
    "ward": "Setagaya"
  },
  {
    "id": 7681390222,
    "lat": 35.6439381,
    "lon": 139.6551898,
    "name": "松陰神社前",
    "name_en": "Shoin-jinja-mae",
    "ward": "Setagaya"
  },
  {
    "id": 7681390223,
    "lat": 35.6435069,
    "lon": 139.6508094,
    "name": "世田谷",
    "name_en": "Setagaya",
    "ward": "Setagaya"
  },
  {
    "id": 7681390224,
    "lat": 35.6432455,
    "lon": 139.6468285,
    "name": "上町",
    "name_en": "Kamimachi",
    "ward": "Setagaya",
    "operator": "東急"
  },
  {
    "id": 7681398785,
    "lat": 35.6478254,
    "lon": 139.6449893,
    "name": "宮の坂",
    "name_en": "Miyanosaka",
    "ward": "Setagaya"
  },
  {
    "id": 7681398788,
    "lat": 35.6601167,
    "lon": 139.641968,
    "name": "松原",
    "name_en": "Matsubara",
    "ward": "Setagaya"
  },
  {
    "id": 7682830399,
    "lat": 35.6709596,
    "lon": 139.6587527,
    "name": "代田橋",
    "name_en": "Daitabashi",
    "ward": "Setagaya",
    "operator": "京王電鉄"
  },
  {
    "id": 7682838109,
    "lat": 35.6675627,
    "lon": 139.6320107,
    "name": "桜上水",
    "name_en": "Sakurajosui",
    "ward": "Setagaya",
    "operator": "京王電鉄"
  },
  {
    "id": 7682843594,
    "lat": 35.6705822,
    "lon": 139.6083951,
    "name": "芦花公園",
    "name_en": "Roka-koen",
    "ward": "Setagaya",
    "operator": "京王電鉄"
  },
  {
    "id": 7682885667,
    "lat": 35.6680037,
    "lon": 139.6008523,
    "name": "千歳烏山",
    "name_en": "Chitose-karasuyama",
    "ward": "Setagaya"
  },
  {
    "id": 7880318769,
    "lat": 35.6266472,
    "lon": 139.6341544,
    "name": "用賀",
    "name_en": "Yoga",
    "ward": "Setagaya",
    "operator": "東急電鉄"
  },
  {
    "id": 7880318770,
    "lat": 35.6317241,
    "lon": 139.6453688,
    "name": "桜新町",
    "name_en": "Sakura-shimmachi",
    "ward": "Setagaya"
  },
  {
    "id": 7880318771,
    "lat": 35.6331934,
    "lon": 139.6611562,
    "name": "駒沢大学",
    "name_en": "Komazawa-daigaku",
    "ward": "Setagaya",
    "operator": "東急電鉄"
  },
  {
    "id": 7880318772,
    "lat": 35.6435527,
    "lon": 139.6713037,
    "name": "三軒茶屋",
    "name_en": "Sangen-jaya",
    "ward": "Setagaya"
  },
  {
    "id": 7892696560,
    "lat": 35.6605069,
    "lon": 139.6729246,
    "name": "池ノ上",
    "name_en": "Ikenoue",
    "ward": "Setagaya",
    "operator": "京王電鉄"
  },
  {
    "id": 7892696562,
    "lat": 35.6626076,
    "lon": 139.6606159,
    "name": "新代田",
    "name_en": "Shindaita",
    "ward": "Setagaya",
    "operator": "京王電鉄"
  },
  {
    "id": 7892696564,
    "lat": 35.6626431,
    "lon": 139.6558575,
    "name": "東松原",
    "name_en": "Higashi-matsubara",
    "ward": "Setagaya",
    "operator": "京王電鉄"
  },
  {
    "id": 241896099,
    "lat": 35.65808,
    "lon": 139.7017647,
    "name": "渋谷",
    "name_en": "Shibuya",
    "ward": "Shibuya",
    "operator": "東日本旅客鉄道"
  },
  {
    "id": 262449251,
    "lat": 35.6469738,
    "lon": 139.7086461,
    "name": "恵比寿",
    "name_en": "Ebisu",
    "ward": "Shibuya",
    "operator": "東京地下鉄"
  },
  {
    "id": 281366568,
    "lat": 35.6696211,
    "lon": 139.6888398,
    "name": "代々木八幡",
    "name_en": "Yoyogi-Hachiman",
    "ward": "Shibuya",
    "operator": "小田急電鉄"
  },
  {
    "id": 281366963,
    "lat": 35.6690082,
    "lon": 139.6797884,
    "name": "代々木上原",
    "name_en": "Yoyogi-Uehara",
    "ward": "Shibuya",
    "operator": "小田急電鉄;東京地下鉄"
  },
  {
    "id": 2389826024,
    "lat": 35.6883635,
    "lon": 139.6990749,
    "name": "新宿",
    "name_en": "Shinjuku",
    "ward": "Shibuya",
    "operator": "東京都交通局"
  },
  {
    "id": 2558121904,
    "lat": 35.6464413,
    "lon": 139.7102082,
    "name": "恵比寿",
    "name_en": "Ebisu",
    "ward": "Shibuya",
    "operator": "東日本旅客鉄道"
  },
  {
    "id": 2558121938,
    "lat": 35.6812658,
    "lon": 139.7113311,
    "name": "千駄ケ谷",
    "name_en": "Sendagaya",
    "ward": "Shibuya",
    "operator": "東日本旅客鉄道"
  },
  {
    "id": 2558121954,
    "lat": 35.6839514,
    "lon": 139.7020806,
    "name": "代々木",
    "name_en": "Yoyogi",
    "ward": "Shibuya",
    "operator": "東日本旅客鉄道"
  },
  {
    "id": 3613410677,
    "lat": 35.6787414,
    "lon": 139.6936737,
    "name": "参宮橋",
    "name_en": "Sangubashi",
    "ward": "Shibuya",
    "operator": "小田急電鉄"
  },
  {
    "id": 3623713008,
    "lat": 35.6585367,
    "lon": 139.6991599,
    "name": "渋谷",
    "name_en": "Shibuya",
    "ward": "Shibuya",
    "operator": "京王電鉄"
  },
  {
    "id": 3656056035,
    "lat": 35.648157,
    "lon": 139.703293,
    "name": "代官山",
    "name_en": "Daikan-yama",
    "ward": "Shibuya",
    "operator": "東京急行電鉄"
  },
  {
    "id": 3668999960,
    "lat": 35.6689704,
    "lon": 139.7043604,
    "name": "明治神宮前〈原宿〉",
    "name_en": "Meiji-jingumae 'Harajuku'",
    "ward": "Shibuya",
    "operator": "東京地下鉄"
  },
  {
    "id": 5410124418,
    "lat": 35.6835694,
    "lon": 139.7015967,
    "name": "代々木",
    "name_en": "Yoyogi",
    "ward": "Shibuya"
  },
  {
    "id": 6205618547,
    "lat": 35.6690323,
    "lon": 139.6901224,
    "name": "代々木公園",
    "name_en": "Yoyogi-koen",
    "ward": "Shibuya",
    "operator": "東京地下鉄"
  },
  {
    "id": 6206496012,
    "lat": 35.6801003,
    "lon": 139.7139442,
    "name": "国立競技場",
    "name_en": "Kokuritsu-kyogijo",
    "ward": "Shibuya",
    "operator": "東京都交通局"
  },
  {
    "id": 6219204314,
    "lat": 35.658999,
    "lon": 139.7024447,
    "name": "渋谷",
    "name_en": "Shibuya",
    "ward": "Shibuya",
    "operator": "東京地下鉄"
  },
  {
    "id": 6219636719,
    "lat": 35.6584501,
    "lon": 139.7028426,
    "name": "渋谷",
    "name_en": "Shibuya",
    "ward": "Shibuya",
    "operator": "東急電鉄"
  },
  {
    "id": 6219656544,
    "lat": 35.659501,
    "lon": 139.701972,
    "name": "渋谷",
    "name_en": "Shibuya",
    "ward": "Shibuya"
  },
  {
    "id": 6277490559,
    "lat": 35.6684209,
    "lon": 139.705341,
    "name": "明治神宮前〈原宿〉",
    "name_en": "Meiji-jingumae 'Harajuku'",
    "ward": "Shibuya",
    "operator": "東京地下鉄"
  },
  {
    "id": 6806051378,
    "lat": 35.6702145,
    "lon": 139.7024266,
    "name": "原宿",
    "name_en": "Harajuku",
    "ward": "Shibuya",
    "operator": "東日本旅客鉄道"
  },
  {
    "id": 6810298549,
    "lat": 35.6772317,
    "lon": 139.6768293,
    "name": "幡ヶ谷",
    "name_en": "Hatagaya",
    "ward": "Shibuya",
    "operator": "京王電鉄"
  },
  {
    "id": 6810298550,
    "lat": 35.6736801,
    "lon": 139.6672321,
    "name": "笹塚",
    "name_en": "Sasazuka",
    "ward": "Shibuya",
    "operator": "京王電鉄"
  },
  {
    "id": 7661834794,
    "lat": 35.6837073,
    "lon": 139.698857,
    "name": "南新宿",
    "name_en": "Minami-Shinjuku",
    "ward": "Shibuya",
    "operator": "小田急電鉄"
  },
  {
    "id": 7775803876,
    "lat": 35.6784974,
    "lon": 139.705414,
    "name": "北参道",
    "name_en": "Kita-sando",
    "ward": "Shibuya",
    "operator": "東京地下鉄"
  },
  {
    "id": 7786715976,
    "lat": 35.6520629,
    "lon": 139.7222033,
    "name": "広尾",
    "name_en": "Hiro-o",
    "ward": "Shibuya",
    "operator": "東京地下鉄"
  },
  {
    "id": 7872741440,
    "lat": 35.6811565,
    "lon": 139.6862442,
    "name": "初台",
    "name_en": "Hatsudai",
    "ward": "Shibuya",
    "operator": "京王電鉄"
  },
  {
    "id": 7892857493,
    "lat": 35.6572159,
    "lon": 139.6934884,
    "name": "神泉",
    "name_en": "Shinsen",
    "ward": "Shibuya",
    "operator": "京王電鉄"
  },
  {
    "id": 1095669274,
    "lat": 36.7537475,
    "lon": 138.3194456,
    "name": "上今井",
    "name_en": "Kamiimai",
    "ward": "Nakano"
  },
  {
    "id": 1095674291,
    "lat": 36.7690628,
    "lon": 138.3236384,
    "name": "替佐",
    "name_en": "Kaesa",
    "ward": "Nakano"
  },
  {
    "id": 2559434134,
    "lat": 35.7058302,
    "lon": 139.665633,
    "name": "中野",
    "name_en": "Nakano",
    "ward": "Nakano",
    "operator": "東日本旅客鉄道;東京地下鉄"
  },
  {
    "id": 2733671211,
    "lat": 35.7192687,
    "lon": 139.6646063,
    "name": "沼袋",
    "name_en": "Numabukuro",
    "ward": "Nakano",
    "operator": "西武鉄道"
  },
  {
    "id": 6217547168,
    "lat": 35.6971173,
    "lon": 139.6817498,
    "name": "中野坂上",
    "name_en": "Nakano-sakaue",
    "ward": "Nakano",
    "operator": "東京地下鉄"
  },
  {
    "id": 6217625964,
    "lat": 35.6972839,
    "lon": 139.6829208,
    "name": "中野坂上",
    "name_en": "Nakano-sakaue",
    "ward": "Nakano",
    "operator": "東京都交通局"
  },
  {
    "id": 6812265365,
    "lat": 35.692021,
    "lon": 139.6738042,
    "name": "中野新橋",
    "name_en": "Nakano-shimbashi",
    "ward": "Nakano",
    "operator": "東京地下鉄"
  },
  {
    "id": 7097139114,
    "lat": 35.7196957,
    "lon": 139.6531263,
    "name": "野方",
    "name_en": "Nogata",
    "ward": "Nakano",
    "operator": "西武鉄道"
  },
  {
    "id": 7430375681,
    "lat": 35.7157294,
    "lon": 139.672568,
    "name": "新井薬師前",
    "name_en": "Araiyakushi-mae",
    "ward": "Nakano",
    "operator": "西武鉄道"
  },
  {
    "id": 7786715963,
    "lat": 35.6974599,
    "lon": 139.6686428,
    "name": "新中野",
    "name_en": "Shin-nakano",
    "ward": "Nakano",
    "operator": "東京地下鉄"
  },
  {
    "id": 7787647714,
    "lat": 35.6905641,
    "lon": 139.6670329,
    "name": "中野富士見町",
    "name_en": "Nakano-fujimicho",
    "ward": "Nakano",
    "operator": "東京地下鉄"
  },
  {
    "id": 7791591083,
    "lat": 35.7326022,
    "lon": 139.6704167,
    "name": "新江古田",
    "name_en": "Shin-egota",
    "ward": "Nakano",
    "operator": "東京都交通局"
  },
  {
    "id": 7791605892,
    "lat": 35.7073477,
    "lon": 139.6832315,
    "name": "東中野",
    "name_en": "Higashi-nakano",
    "ward": "Nakano",
    "operator": "東京都交通局"
  },
  {
    "id": 7808533560,
    "lat": 35.7062503,
    "lon": 139.6848675,
    "name": "東中野",
    "name_en": "Higashi-Nakano",
    "ward": "Nakano",
    "operator": "東日本旅客鉃道"
  },
  {
    "id": 7975105177,
    "lat": 35.7224188,
    "lon": 139.6446653,
    "name": "都立家政",
    "name_en": "Toritsu-Kasei",
    "ward": "Nakano",
    "operator": "西武鉄道"
  },
  {
    "id": 7978376605,
    "lat": 35.7226521,
    "lon": 139.639543,
    "name": "鷺ノ宮",
    "name_en": "Saginomiya",
    "ward": "Nakano",
    "operator": "西武鉄道"
  },
  {
    "id": 8250220894,
    "lat": 36.7610739,
    "lon": 138.3935845,
    "name": "信濃竹原",
    "name_en": "Shinanotakehara",
    "ward": "Nakano"
  },
  {
    "id": 8250220896,
    "lat": 36.7444778,
    "lon": 138.364905,
    "name": "信州中野",
    "name_en": "Shinshunakano",
    "ward": "Nakano"
  },
  {
    "id": 8250220899,
    "lat": 36.7505281,
    "lon": 138.3742979,
    "name": "中野松川",
    "name_en": "Nakanomatsukawa",
    "ward": "Nakano"
  },
  {
    "id": 8250238309,
    "lat": 36.7267523,
    "lon": 138.362373,
    "name": "延徳",
    "name_en": "Entoku",
    "ward": "Nakano"
  },
  {
    "id": 8250308151,
    "lat": 36.7123103,
    "lon": 138.3494595,
    "name": "桜沢",
    "name_en": "Sakurasawa",
    "ward": "Nakano"
  },
  {
    "id": 2558121920,
    "lat": 35.7055421,
    "lon": 139.6499648,
    "name": "高円寺",
    "name_en": "Kōenji",
    "ward": "Suginami",
    "operator": "東日本旅客鉄道"
  },
  {
    "id": 2558121936,
    "lat": 35.7044803,
    "lon": 139.6201587,
    "name": "荻窪",
    "name_en": "Ogikubo",
    "ward": "Suginami",
    "operator": "東日本旅客鉄道"
  },
  {
    "id": 2559434097,
    "lat": 35.7048403,
    "lon": 139.6354724,
    "name": "阿佐ケ谷",
    "name_en": "Asagaya",
    "ward": "Suginami",
    "operator": "東日本旅客鉄道"
  },
  {
    "id": 2559434141,
    "lat": 35.7037331,
    "lon": 139.5996053,
    "name": "西荻窪",
    "name_en": "Nishi-Ogikubo",
    "ward": "Suginami",
    "operator": "東日本旅客鉄道"
  },
  {
    "id": 2773536829,
    "lat": 35.6698828,
    "lon": 139.6157094,
    "name": "八幡山",
    "name_en": "Hachimanyama",
    "ward": "Suginami",
    "operator": "京王電鉄"
  },
  {
    "id": 6140211238,
    "lat": 35.7246904,
    "lon": 139.6152362,
    "name": "井荻",
    "name_en": "Iogi",
    "ward": "Suginami",
    "operator": "西武鉄道"
  },
  {
    "id": 6423969022,
    "lat": 35.7042744,
    "lon": 139.6200267,
    "name": "荻窪",
    "name_en": "Ogikubo",
    "ward": "Suginami",
    "operator": "東京地下鉄"
  },
  {
    "id": 7786715970,
    "lat": 35.6979717,
    "lon": 139.6581601,
    "name": "東高円寺",
    "name_en": "Higashi-koenji",
    "ward": "Suginami",
    "operator": "東京地下鉄"
  },
  {
    "id": 7786715971,
    "lat": 35.6978735,
    "lon": 139.648688,
    "name": "新高円寺",
    "name_en": "Shin-koenji",
    "ward": "Suginami",
    "operator": "東京地下鉄"
  },
  {
    "id": 7786715972,
    "lat": 35.6993987,
    "lon": 139.6357088,
    "name": "南阿佐ケ谷",
    "name_en": "Minami-asagaya",
    "ward": "Suginami",
    "operator": "東京地下鉄"
  },
  {
    "id": 7787647712,
    "lat": 35.6835007,
    "lon": 139.6576888,
    "name": "方南町",
    "name_en": "Honancho",
    "ward": "Suginami",
    "operator": "東京地下鉄"
  },
  {
    "id": 7892696569,
    "lat": 35.6762576,
    "lon": 139.642645,
    "name": "永福町",
    "name_en": "Eifukucho",
    "ward": "Suginami",
    "operator": "京王電鉄"
  },
  {
    "id": 7892696570,
    "lat": 35.678698,
    "lon": 139.635535,
    "name": "西永福",
    "name_en": "Nishi-eifuku",
    "ward": "Suginami",
    "operator": "京王電鉄"
  },
  {
    "id": 7892696572,
    "lat": 35.6816467,
    "lon": 139.6274677,
    "name": "浜田山",
    "name_en": "Hamadayama",
    "ward": "Suginami",
    "operator": "京王電鉄"
  },
  {
    "id": 7892696573,
    "lat": 35.683248,
    "lon": 139.6149498,
    "name": "高井戸",
    "name_en": "Takaido",
    "ward": "Suginami",
    "operator": "京王電鉄"
  },
  {
    "id": 7892696574,
    "lat": 35.684671,
    "lon": 139.6076113,
    "name": "富士見ヶ丘",
    "name_en": "Fujimigaoka",
    "ward": "Suginami",
    "operator": "京王電鉄"
  },
  {
    "id": 7892696575,
    "lat": 35.6879766,
    "lon": 139.5996129,
    "name": "久我山",
    "name_en": "Kugayama",
    "ward": "Suginami",
    "operator": "京王電鉄"
  },
  {
    "id": 7968982374,
    "lat": 35.7252616,
    "lon": 139.6030669,
    "name": "上井草",
    "name_en": "Kami-Igusa",
    "ward": "Suginami"
  },
  {
    "id": 7975088465,
    "lat": 35.7238306,
    "lon": 139.6253354,
    "name": "下井草",
    "name_en": "Shimo-Igusa",
    "ward": "Suginami",
    "operator": "西武鉄道"
  },
  {
    "id": 236579053,
    "lat": 35.7365848,
    "lon": 139.7472412,
    "name": "駒込",
    "name_en": "Komagome",
    "ward": "Toshima",
    "operator": "東日本旅客鉄道"
  },
  {
    "id": 236579126,
    "lat": 35.7334119,
    "lon": 139.7394273,
    "name": "巣鴨",
    "name_en": "Sugamo",
    "ward": "Toshima",
    "operator": "東日本旅客鉄道"
  },
  {
    "id": 236579274,
    "lat": 35.7316851,
    "lon": 139.7285879,
    "name": "大塚",
    "name_en": "Otsuka",
    "ward": "Toshima",
    "operator": "東日本旅客鉄道"
  },
  {
    "id": 664579553,
    "lat": 35.7264476,
    "lon": 139.6948922,
    "name": "椎名町",
    "name_en": "Shiinamachi",
    "ward": "Toshima",
    "operator": "西武鉄道"
  },
  {
    "id": 664579562,
    "lat": 35.7280917,
    "lon": 139.7110372,
    "name": "池袋",
    "name_en": "Ikebukuro",
    "ward": "Toshima",
    "operator": "西武鉄道"
  },
  {
    "id": 832289046,
    "lat": 35.7211919,
    "lon": 139.7064645,
    "name": "目白",
    "name_en": "Mejiro",
    "ward": "Toshima",
    "operator": "東日本旅客鉄道"
  },
  {
    "id": 1926376076,
    "lat": 35.7383242,
    "lon": 139.689366,
    "name": "千川",
    "name_en": "Senkawa",
    "ward": "Toshima",
    "operator": "東京メトロ"
  },
  {
    "id": 1926376079,
    "lat": 35.7256214,
    "lon": 139.7193857,
    "name": "東池袋",
    "name_en": "Higashi-ikebukuro",
    "ward": "Toshima",
    "operator": "東京地下鉄"
  },
  {
    "id": 1926376083,
    "lat": 35.729643,
    "lon": 139.7096856,
    "name": "池袋",
    "name_en": "Ikebukuro",
    "ward": "Toshima"
  },
  {
    "id": 1926376084,
    "lat": 35.7332405,
    "lon": 139.6986842,
    "name": "要町",
    "name_en": "Kanamecho",
    "ward": "Toshima",
    "operator": "東京地下鉄"
  },
  {
    "id": 1926700040,
    "lat": 35.7302282,
    "lon": 139.7114846,
    "name": "池袋",
    "name_en": "Ikebukuro",
    "ward": "Toshima",
    "operator": "東京地下鉄"
  },
  {
    "id": 1931878067,
    "lat": 35.7314483,
    "lon": 139.72926,
    "name": "大塚駅前",
    "name_en": "Otsuka-ekimae",
    "ward": "Toshima",
    "operator": "東京都交通局"
  },
  {
    "id": 1951959623,
    "lat": 35.7202465,
    "lon": 139.7147782,
    "name": "雑司が谷",
    "name_en": "Zoshigaya",
    "ward": "Toshima",
    "operator": "東京地下鉄"
  },
  {
    "id": 2558121915,
    "lat": 35.730185,
    "lon": 139.7111512,
    "name": "池袋",
    "name_en": "Ikebukuro",
    "ward": "Toshima",
    "operator": "東日本旅客鉄道"
  },
  {
    "id": 2696334868,
    "lat": 35.7202125,
    "lon": 139.7148568,
    "name": "鬼子母神前",
    "name_en": "Kishibojimmae",
    "ward": "Toshima",
    "operator": "東京都交通局"
  },
  {
    "id": 3625412826,
    "lat": 35.7302608,
    "lon": 139.6828643,
    "name": "東長崎",
    "name_en": "Higashi-Nagasaki",
    "ward": "Toshima",
    "operator": "西武鉄道"
  },
  {
    "id": 5406704191,
    "lat": 35.7359873,
    "lon": 139.7467609,
    "name": "駒込",
    "name_en": "Komagome",
    "ward": "Toshima"
  },
  {
    "id": 5409208380,
    "lat": 35.7337873,
    "lon": 139.7382188,
    "name": "巣鴨",
    "name_en": "Sugamo",
    "ward": "Toshima",
    "operator": "東京都交通局"
  },
  {
    "id": 5409272742,
    "lat": 35.7311425,
    "lon": 139.7089439,
    "name": "池袋",
    "name_en": "Ikebukuro",
    "ward": "Toshima",
    "operator": "東京メトロ"
  },
  {
    "id": 6236080112,
    "lat": 35.7163541,
    "lon": 139.7125211,
    "name": "学習院下",
    "name_en": "Gakushuinshita",
    "ward": "Toshima",
    "operator": "東京都交通局"
  },
  {
    "id": 6236080113,
    "lat": 35.7241989,
    "lon": 139.7179309,
    "name": "都電雑司ヶ谷",
    "name_en": "Toden-zoshigaya",
    "ward": "Toshima",
    "operator": "東京都交通局"
  },
  {
    "id": 6236080114,
    "lat": 35.7252736,
    "lon": 139.7201704,
    "name": "東池袋四丁目",
    "name_en": "Higashi-ikebukuro-yonchome",
    "ward": "Toshima",
    "operator": "東京都交通局"
  },
  {
    "id": 6236080117,
    "lat": 35.7290407,
    "lon": 139.7250932,
    "name": "向原",
    "name_en": "Mukohara",
    "ward": "Toshima",
    "operator": "東京都交通局"
  },
  {
    "id": 6236325155,
    "lat": 35.735513,
    "lon": 139.7277426,
    "name": "巣鴨新田",
    "name_en": "Sugamoshinden",
    "ward": "Toshima",
    "operator": "東京都交通局"
  },
  {
    "id": 6236350648,
    "lat": 35.7396036,
    "lon": 139.7297221,
    "name": "庚申塚",
    "name_en": "Koshinzuka",
    "ward": "Toshima",
    "operator": "東京都交通局"
  },
  {
    "id": 6236350649,
    "lat": 35.7415243,
    "lon": 139.7306336,
    "name": "新庚申塚",
    "name_en": "Shin-koshinzuka",
    "ward": "Toshima",
    "operator": "東京都交通局"
  },
  {
    "id": 7093641218,
    "lat": 35.7304418,
    "lon": 139.7107453,
    "name": "池袋",
    "name_en": "Ikebukuro",
    "ward": "Toshima",
    "operator": "Tojoouter"
  },
  {
    "id": 7791605901,
    "lat": 35.7435537,
    "lon": 139.7286973,
    "name": "西巣鴨",
    "name_en": "Nishi-sugamo",
    "ward": "Toshima",
    "operator": "東京都交通局"
  },
  {
    "id": 7863114045,
    "lat": 35.7409856,
    "lon": 139.7168198,
    "name": "北池袋",
    "name_en": "Kita-ikebukuro",
    "ward": "Toshima",
    "operator": "東武鉄道"
  },
  {
    "id": 7864238181,
    "lat": 35.7452488,
    "lon": 139.7154787,
    "name": "下板橋",
    "name_en": "Shimo-itabashi",
    "ward": "Toshima",
    "operator": "東武鉄道"
  },
  {
    "id": 236578838,
    "lat": 35.7373723,
    "lon": 139.761707,
    "name": "田端",
    "name_en": "Tabata",
    "ward": "Kita",
    "operator": "東日本旅客鉄道"
  },
  {
    "id": 1078841212,
    "lat": 35.7650552,
    "lon": 139.7357178,
    "name": "王子神谷",
    "name_en": "Oji-kamiya",
    "ward": "Kita",
    "operator": "東京地下鉄"
  },
  {
    "id": 1640176211,
    "lat": 35.7911796,
    "lon": 139.6915101,
    "name": "浮間舟渡",
    "name_en": "Ukimafunado",
    "ward": "Kita",
    "operator": "東日本旅客鉄道"
  },
  {
    "id": 1646881158,
    "lat": 35.7867812,
    "lon": 139.7060288,
    "name": "北赤羽",
    "name_en": "Kita-Akabane",
    "ward": "Kita",
    "operator": "東日本旅客鉄道"
  },
  {
    "id": 1901864569,
    "lat": 35.7509144,
    "lon": 139.7422541,
    "name": "栄町",
    "name_en": "Sakaecho",
    "ward": "Kita",
    "operator": "東京都交通局"
  },
  {
    "id": 1901864575,
    "lat": 35.7510769,
    "lon": 139.7478469,
    "name": "梶原",
    "name_en": "Kajiwara",
    "ward": "Kita",
    "operator": "東京都交通局"
  },
  {
    "id": 1901864580,
    "lat": 35.7473062,
    "lon": 139.7353992,
    "name": "滝野川一丁目",
    "name_en": "Takinogawa-itchome",
    "ward": "Kita",
    "operator": "東京都交通局"
  },
  {
    "id": 1901864597,
    "lat": 35.7501777,
    "lon": 139.7373997,
    "name": "飛鳥山",
    "name_en": "Asukayama",
    "ward": "Kita",
    "operator": "東京都交通局"
  },
  {
    "id": 2230287460,
    "lat": 35.7781394,
    "lon": 139.7207999,
    "name": "赤羽",
    "name_en": "Akabane",
    "ward": "Kita",
    "operator": "東日本旅客鉄道"
  },
  {
    "id": 2558151864,
    "lat": 35.7779045,
    "lon": 139.7325256,
    "name": "志茂",
    "name_en": "Shimo",
    "ward": "Kita",
    "operator": "東京地下鉄"
  },
  {
    "id": 2613600680,
    "lat": 35.7460496,
    "lon": 139.7421722,
    "name": "西ケ原",
    "name_en": "Nishigahara",
    "ward": "Kita",
    "operator": "東京地下鉄"
  },
  {
    "id": 2620090842,
    "lat": 35.7638484,
    "lon": 139.7268749,
    "name": "東十条",
    "name_en": "Higashi-Jūjō",
    "ward": "Kita",
    "operator": "東日本旅客鉄道"
  },
  {
    "id": 3547330603,
    "lat": 35.746579,
    "lon": 139.7469796,
    "name": "上中里",
    "name_en": "Kami-Nakazato",
    "ward": "Kita",
    "operator": "東日本旅客鉄道"
  },
  {
    "id": 3547330607,
    "lat": 35.7523466,
    "lon": 139.7382749,
    "name": "王子",
    "name_en": "Ōji",
    "ward": "Kita",
    "operator": "東日本旅客鉄道"
  },
  {
    "id": 3693272761,
    "lat": 35.7469091,
    "lon": 139.7536603,
    "name": "尾久",
    "name_en": "Oku",
    "ward": "Kita",
    "operator": "東日本旅客鉄道"
  },
  {
    "id": 5406714005,
    "lat": 35.7539617,
    "lon": 139.7375243,
    "name": "王子",
    "name_en": "Oji",
    "ward": "Kita",
    "operator": "東京メトロ"
  },
  {
    "id": 5406718981,
    "lat": 35.7834478,
    "lon": 139.7221,
    "name": "赤羽岩淵",
    "name_en": "Akabane-iwabuchi",
    "ward": "Kita"
  },
  {
    "id": 6236350650,
    "lat": 35.7445689,
    "lon": 139.7329388,
    "name": "西ヶ原四丁目",
    "name_en": "Nishigahara-yonchome",
    "ward": "Kita",
    "operator": "東京都交通局"
  },
  {
    "id": 6236367099,
    "lat": 35.7527409,
    "lon": 139.7382607,
    "name": "王子駅前",
    "name_en": "Oji-ekimae",
    "ward": "Kita",
    "operator": "東京都交通局"
  },
  {
    "id": 7034774100,
    "lat": 35.7600083,
    "lon": 139.7223074,
    "name": "十条",
    "name_en": "Jūjō",
    "ward": "Kita",
    "operator": "東日本旅客鉄道"
  },
  {
    "id": 172670767,
    "lat": 35.7283798,
    "lon": 139.7709817,
    "name": "日暮里",
    "name_en": "Nippori",
    "ward": "Arakawa",
    "operator": "京成電鉄"
  },
  {
    "id": 236578667,
    "lat": 35.7281495,
    "lon": 139.7706579,
    "name": "日暮里",
    "name_en": "Nippori",
    "ward": "Arakawa",
    "operator": "東日本旅客鉄道"
  },
  {
    "id": 236578741,
    "lat": 35.7322021,
    "lon": 139.7666684,
    "name": "西日暮里",
    "name_en": "Nishi-Nippori",
    "ward": "Arakawa",
    "operator": "東日本旅客鉄道"
  },
  {
    "id": 240510683,
    "lat": 35.7332922,
    "lon": 139.7777743,
    "name": "三河島",
    "name_en": "Mikawashima",
    "ward": "Arakawa",
    "operator": "東日本旅客鉄道"
  },
  {
    "id": 772364943,
    "lat": 35.7337333,
    "lon": 139.7681087,
    "name": "西日暮里",
    "name_en": "Nishi-nippori",
    "ward": "Arakawa",
    "operator": "東京都交通局"
  },
  {
    "id": 772389775,
    "lat": 35.7289204,
    "lon": 139.7713635,
    "name": "日暮里",
    "name_en": "Nippori",
    "ward": "Arakawa",
    "operator": "東京都交通局"
  },
  {
    "id": 1314411833,
    "lat": 35.7333017,
    "lon": 139.7990144,
    "name": "南千住",
    "name_en": "Minami-Senju",
    "ward": "Arakawa",
    "operator": "東日本旅客鉄道"
  },
  {
    "id": 1895223197,
    "lat": 35.7321207,
    "lon": 139.7915752,
    "name": "三ノ輪橋",
    "name_en": "Minowabashi",
    "ward": "Arakawa",
    "operator": "東京都交通局"
  },
  {
    "id": 1895223210,
    "lat": 35.7337167,
    "lon": 139.7889304,
    "name": "荒川一中前",
    "name_en": "Arakawa-itchumae",
    "ward": "Arakawa",
    "operator": "東京都交通局"
  },
  {
    "id": 1895223231,
    "lat": 35.7386835,
    "lon": 139.7846639,
    "name": "荒川二丁目",
    "name_en": "Arakawa-nichome",
    "ward": "Arakawa",
    "operator": "東京都交通局"
  },
  {
    "id": 1895223270,
    "lat": 35.7349219,
    "lon": 139.7864577,
    "name": "荒川区役所前",
    "name_en": "Arakawa-kuyakushomae",
    "ward": "Arakawa",
    "operator": "東京都交通局"
  },
  {
    "id": 1895738589,
    "lat": 35.742778,
    "lon": 139.7809588,
    "name": "町屋駅前",
    "name_en": "Machiya-ekimae",
    "ward": "Arakawa",
    "operator": "東京都交通局"
  },
  {
    "id": 1926239471,
    "lat": 35.7325841,
    "lon": 139.7672175,
    "name": "西日暮里",
    "name_en": "Nishi-nippori",
    "ward": "Arakawa",
    "operator": "東京地下鉄"
  },
  {
    "id": 2632036488,
    "lat": 35.7428607,
    "lon": 139.7690418,
    "name": "赤土小学校前",
    "name_en": "Akado-shogakkomae",
    "ward": "Arakawa",
    "operator": "東京都交通局"
  },
  {
    "id": 2730694910,
    "lat": 35.7437837,
    "lon": 139.7767536,
    "name": "町屋二丁目",
    "name_en": "Machiya-nichome",
    "ward": "Arakawa",
    "operator": "東京都交通局"
  },
  {
    "id": 2730694911,
    "lat": 35.741991,
    "lon": 139.7841403,
    "name": "荒川七丁目",
    "name_en": "Arakawa-nanachome",
    "ward": "Arakawa",
    "operator": "東京都交通局"
  },
  {
    "id": 5867904899,
    "lat": 35.7506767,
    "lon": 139.7579108,
    "name": "荒川遊園地前",
    "name_en": "Arakawa-yuenchimae",
    "ward": "Arakawa"
  },
  {
    "id": 6235000939,
    "lat": 35.7484991,
    "lon": 139.7698441,
    "name": "熊野前",
    "name_en": "Kumanomae",
    "ward": "Arakawa",
    "operator": "東京都交通局"
  },
  {
    "id": 6236471539,
    "lat": 35.750891,
    "lon": 139.7527129,
    "name": "荒川車庫前",
    "name_en": "Arakawa-shakomae",
    "ward": "Arakawa",
    "operator": "東京都交通局"
  },
  {
    "id": 6236482425,
    "lat": 35.7505193,
    "lon": 139.7620294,
    "name": "小台",
    "name_en": "Odai",
    "ward": "Arakawa",
    "operator": "東京都交通局"
  },
  {
    "id": 6236490715,
    "lat": 35.7500466,
    "lon": 139.7652475,
    "name": "宮ノ前",
    "name_en": "Miyanomae",
    "ward": "Arakawa",
    "operator": "東京都交通局"
  },
  {
    "id": 6236498188,
    "lat": 35.7491167,
    "lon": 139.7697005,
    "name": "熊野前",
    "name_en": "Kumanomae",
    "ward": "Arakawa",
    "operator": "東京都交通局"
  },
  {
    "id": 6237073657,
    "lat": 35.7455749,
    "lon": 139.7740826,
    "name": "東尾久三丁目",
    "name_en": "Higashi-ogu-sanchome",
    "ward": "Arakawa",
    "operator": "東京都交通局"
  },
  {
    "id": 6237880982,
    "lat": 35.7323539,
    "lon": 139.7988024,
    "name": "南千住",
    "name_en": "Minami-senju",
    "ward": "Arakawa",
    "operator": "東京地下鉄"
  },
  {
    "id": 7179891194,
    "lat": 35.7328539,
    "lon": 139.7988176,
    "name": "南千住",
    "name_en": "Minami-Senju",
    "ward": "Arakawa",
    "operator": "首都圏新都市鉄道"
  },
  {
    "id": 7777176985,
    "lat": 35.7421779,
    "lon": 139.7800901,
    "name": "町屋",
    "name_en": "Machiya",
    "ward": "Arakawa",
    "operator": "東京地下鉄"
  },
  {
    "id": 7811267724,
    "lat": 35.7372049,
    "lon": 139.7739458,
    "name": "新三河島",
    "name_en": "Shim-Mikawashima",
    "ward": "Arakawa",
    "operator": "京成電鉄"
  },
  {
    "id": 7857922514,
    "lat": 35.742289,
    "lon": 139.7814487,
    "name": "町屋",
    "name_en": "Machiya",
    "ward": "Arakawa",
    "operator": "京成電鉄"
  },
  {
    "id": 2467422036,
    "lat": 35.7902142,
    "lon": 139.6544258,
    "name": "新高島平",
    "name_en": "Shin-takashimadaira",
    "ward": "Itabashi",
    "operator": "東京都交通局"
  },
  {
    "id": 2723855432,
    "lat": 35.7453955,
    "lon": 139.7195098,
    "name": "板橋",
    "name_en": "Itabashi",
    "ward": "Itabashi",
    "operator": "東日本旅客鉄道"
  },
  {
    "id": 5408201208,
    "lat": 35.7699229,
    "lon": 139.6441259,
    "name": "地下鉄赤塚",
    "name_en": "Chikatetsu-akatsuka",
    "ward": "Itabashi",
    "operator": "東京地下鉄"
  },
  {
    "id": 5408201209,
    "lat": 35.7766946,
    "lon": 139.6312465,
    "name": "地下鉄成増",
    "name_en": "Chikatetsu-narimasu",
    "ward": "Itabashi",
    "operator": "東京地下鉄"
  },
  {
    "id": 7791605898,
    "lat": 35.7685214,
    "lon": 139.7024438,
    "name": "本蓮沼",
    "name_en": "Motohasunuma",
    "ward": "Itabashi",
    "operator": "東京都交通局"
  },
  {
    "id": 7791605899,
    "lat": 35.7614305,
    "lon": 139.7055249,
    "name": "板橋本町",
    "name_en": "Itabashihoncho",
    "ward": "Itabashi",
    "operator": "東京都交通局"
  },
  {
    "id": 7791605900,
    "lat": 35.7513477,
    "lon": 139.71004,
    "name": "板橋区役所前",
    "name_en": "Itabashi-kuyakushomae",
    "ward": "Itabashi",
    "operator": "東京都交通局"
  },
  {
    "id": 7791605913,
    "lat": 35.7487966,
    "lon": 139.7199032,
    "name": "新板橋",
    "name_en": "Shin-itabashi",
    "ward": "Itabashi",
    "operator": "東京都交通局"
  },
  {
    "id": 7791605915,
    "lat": 35.7756688,
    "lon": 139.6955288,
    "name": "志村坂上",
    "name_en": "Shimura-sakaue",
    "ward": "Itabashi",
    "operator": "東京都交通局"
  },
  {
    "id": 7791605917,
    "lat": 35.7775108,
    "lon": 139.6859968,
    "name": "志村三丁目",
    "name_en": "Shimura-sanchome",
    "ward": "Itabashi",
    "operator": "東京都交通局"
  },
  {
    "id": 7791605919,
    "lat": 35.7843239,
    "lon": 139.6790713,
    "name": "蓮根",
    "name_en": "Hasune",
    "ward": "Itabashi",
    "operator": "東京都交通局"
  },
  {
    "id": 7791605921,
    "lat": 35.7869663,
    "lon": 139.6740221,
    "name": "西台",
    "name_en": "Nishidai",
    "ward": "Itabashi",
    "operator": "東京都交通局"
  },
  {
    "id": 7791605923,
    "lat": 35.7889131,
    "lon": 139.6612548,
    "name": "高島平",
    "name_en": "Takashimadaira",
    "ward": "Itabashi",
    "operator": "東京都交通局"
  },
  {
    "id": 7791605925,
    "lat": 35.7919112,
    "lon": 139.6457724,
    "name": "西高島平",
    "name_en": "Nishi-takashimadaira",
    "ward": "Itabashi",
    "operator": "東京都交通局"
  },
  {
    "id": 7863114049,
    "lat": 35.7705809,
    "lon": 139.6445735,
    "name": "下赤塚",
    "name_en": "Shimo-akatsuka",
    "ward": "Itabashi",
    "operator": "東武鉄道"
  },
  {
    "id": 7864238163,
    "lat": 35.7775924,
    "lon": 139.632934,
    "name": "成増",
    "name_en": "Narimasu",
    "ward": "Itabashi",
    "operator": "東武鉄道"
  },
  {
    "id": 7864238167,
    "lat": 35.7686483,
    "lon": 139.6625765,
    "name": "東武練馬",
    "name_en": "Tobu-nerima",
    "ward": "Itabashi",
    "operator": "東武鉄道"
  },
  {
    "id": 7864238168,
    "lat": 35.763474,
    "lon": 139.6765427,
    "name": "上板橋",
    "name_en": "Kami-itabashi",
    "ward": "Itabashi",
    "operator": "東武鉄道"
  },
  {
    "id": 7864238172,
    "lat": 35.7589153,
    "lon": 139.6885362,
    "name": "ときわ台",
    "name_en": "Tokiwadai",
    "ward": "Itabashi",
    "operator": "東武鉄道"
  },
  {
    "id": 7864238174,
    "lat": 35.7564001,
    "lon": 139.6941829,
    "name": "中板橋",
    "name_en": "Naka-itabashi",
    "ward": "Itabashi",
    "operator": "東武鉄道"
  },
  {
    "id": 7864238179,
    "lat": 35.7486238,
    "lon": 139.7024348,
    "name": "大山",
    "name_en": "Oyama",
    "ward": "Itabashi",
    "operator": "東武鉄道"
  },
  {
    "id": 664579530,
    "lat": 35.7438271,
    "lon": 139.6061566,
    "name": "石神井公園",
    "name_en": "Shakujii-kōen Station",
    "ward": "Nerima",
    "operator": "西武鉄道"
  },
  {
    "id": 664579533,
    "lat": 35.7359523,
    "lon": 139.6300042,
    "name": "富士見台",
    "name_en": "Fujimidai",
    "ward": "Nerima",
    "operator": "西武鉄道"
  },
  {
    "id": 664579534,
    "lat": 35.7409213,
    "lon": 139.6163048,
    "name": "練馬高野台",
    "name_en": "Nerima-Takanodai",
    "ward": "Nerima",
    "operator": "西武鉄道"
  },
  {
    "id": 2330644212,
    "lat": 35.7495045,
    "lon": 139.5865223,
    "name": "大泉学園",
    "name_en": "Oizumi-gakuen",
    "ward": "Nerima",
    "operator": "西武鉄道"
  },
  {
    "id": 2600954688,
    "lat": 35.7433734,
    "lon": 139.6795267,
    "name": "小竹向原",
    "name_en": "Kotake-mukaihara",
    "ward": "Nerima",
    "operator": "西武鉄道;東京地下鉄"
  },
  {
    "id": 3624969353,
    "lat": 35.7368176,
    "lon": 139.6378105,
    "name": "中村橋",
    "name_en": "Nakamurabashi",
    "ward": "Nerima",
    "operator": "西武鉄道"
  },
  {
    "id": 3625262338,
    "lat": 35.737877,
    "lon": 139.6540818,
    "name": "練馬",
    "name_en": "Nerima",
    "ward": "Nerima",
    "operator": "西武鉄道"
  },
  {
    "id": 3730686212,
    "lat": 35.7424193,
    "lon": 139.6479768,
    "name": "豊島園",
    "name_en": "Toshimaen",
    "ward": "Nerima",
    "operator": "西武鉄道"
  },
  {
    "id": 3730703333,
    "lat": 35.7387537,
    "lon": 139.6623844,
    "name": "桜台",
    "name_en": "Sakuradai",
    "ward": "Nerima",
    "operator": "西武鉄道"
  },
  {
    "id": 5408201206,
    "lat": 35.7497818,
    "lon": 139.6650083,
    "name": "氷川台",
    "name_en": "Hikawadai",
    "ward": "Nerima"
  },
  {
    "id": 5408201207,
    "lat": 35.7576885,
    "lon": 139.6541369,
    "name": "平和台",
    "name_en": "Heiwadai",
    "ward": "Nerima"
  },
  {
    "id": 6548181146,
    "lat": 35.7585523,
    "lon": 139.6293801,
    "name": "光が丘",
    "name_en": "Hikarigaoka",
    "ward": "Nerima",
    "operator": "東京都交通局"
  },
  {
    "id": 7382935074,
    "lat": 35.7410899,
    "lon": 139.6686209,
    "name": "新桜台",
    "name_en": "Shin-Sakuradai",
    "ward": "Nerima",
    "operator": "西武鉄道"
  },
  {
    "id": 7430288084,
    "lat": 35.7375689,
    "lon": 139.6727894,
    "name": "江古田",
    "name_en": "Ekoda",
    "ward": "Nerima",
    "operator": "西武鉄道"
  },
  {
    "id": 7791591077,
    "lat": 35.751398,
    "lon": 139.6403755,
    "name": "練馬春日町",
    "name_en": "Nerima-kasugacho",
    "ward": "Nerima",
    "operator": "東京都交通局"
  },
  {
    "id": 7791591081,
    "lat": 35.7421722,
    "lon": 139.6490783,
    "name": "豊島園",
    "name_en": "Toshimaen",
    "ward": "Nerima",
    "operator": "東京都交通局"
  },
  {
    "id": 7791591082,
    "lat": 35.7373437,
    "lon": 139.6544918,
    "name": "練馬",
    "name_en": "Nerima",
    "ward": "Nerima",
    "operator": "東京都交通局"
  },
  {
    "id": 7975048240,
    "lat": 35.7276304,
    "lon": 139.576787,
    "name": "武蔵関",
    "name_en": "Musashi-Seki",
    "ward": "Nerima",
    "operator": "西武鉄道"
  },
  {
    "id": 7975130445,
    "lat": 35.7261749,
    "lon": 139.5925257,
    "name": "上石神井",
    "name_en": "Kami-Shakujii",
    "ward": "Nerima",
    "operator": "西武鉄道"
  },
  {
    "id": 308840568,
    "lat": 35.7446629,
    "lon": 139.8121358,
    "name": "牛田",
    "name_en": "Ushida",
    "ward": "Adachi",
    "operator": "東武鉄道"
  },
  {
    "id": 722149242,
    "lat": 35.814493,
    "lon": 139.7707277,
    "name": "見沼代親水公園",
    "name_en": "Minumadai-shinsuikoen",
    "ward": "Adachi",
    "operator": "東京都交通局"
  },
  {
    "id": 760985649,
    "lat": 35.7495401,
    "lon": 139.8050915,
    "name": "北千住",
    "name_en": "Kita-Senju",
    "ward": "Adachi",
    "operator": "首都圏新都市鉄道"
  },
  {
    "id": 1926239447,
    "lat": 35.7496649,
    "lon": 139.8045026,
    "name": "北千住",
    "name_en": "Kita-Senju",
    "ward": "Adachi",
    "operator": "東京地下鉄"
  },
  {
    "id": 1956007334,
    "lat": 35.7848565,
    "lon": 139.8218681,
    "name": "六町",
    "name_en": "Rokucho",
    "ward": "Adachi",
    "operator": "首都圏新都市鉄道"
  },
  {
    "id": 1956007338,
    "lat": 35.7717439,
    "lon": 139.8203104,
    "name": "青井",
    "name_en": "Aoi",
    "ward": "Adachi",
    "operator": "首都圏新都市鉄道"
  },
  {
    "id": 3558446593,
    "lat": 35.7788753,
    "lon": 139.7814629,
    "name": "大師前",
    "name_en": "Daishimae",
    "ward": "Adachi",
    "operator": "東武鉄道"
  },
  {
    "id": 3558446594,
    "lat": 35.777253,
    "lon": 139.790321,
    "name": "西新井",
    "name_en": "Nishiarai",
    "ward": "Adachi",
    "operator": "東武鉄道"
  },
  {
    "id": 3656464152,
    "lat": 35.7621283,
    "lon": 139.8248669,
    "name": "綾瀬",
    "name_en": "Ayase",
    "ward": "Adachi",
    "operator": "東京地下鉄"
  },
  {
    "id": 6234960537,
    "lat": 35.8056634,
    "lon": 139.7701164,
    "name": "舎人",
    "name_en": "Toneri",
    "ward": "Adachi",
    "operator": "東京都交通局"
  },
  {
    "id": 6234960538,
    "lat": 35.7963713,
    "lon": 139.7701613,
    "name": "舎人公園",
    "name_en": "Toneri-koen",
    "ward": "Adachi",
    "operator": "東京都交通局"
  },
  {
    "id": 6234995903,
    "lat": 35.7887298,
    "lon": 139.7700523,
    "name": "谷在家",
    "name_en": "Yazaike",
    "ward": "Adachi",
    "operator": "東京都交通局"
  },
  {
    "id": 6234995904,
    "lat": 35.7738081,
    "lon": 139.7703113,
    "name": "江北",
    "name_en": "Kohoku",
    "ward": "Adachi",
    "operator": "東京都交通局"
  },
  {
    "id": 6234995905,
    "lat": 35.7685095,
    "lon": 139.7706994,
    "name": "高野",
    "name_en": "Koya",
    "ward": "Adachi",
    "operator": "東京都交通局"
  },
  {
    "id": 6234995906,
    "lat": 35.7639694,
    "lon": 139.7708262,
    "name": "扇大橋",
    "name_en": "Ogi-ohashi",
    "ward": "Adachi",
    "operator": "東京都交通局"
  },
  {
    "id": 6235000937,
    "lat": 35.7546937,
    "lon": 139.7703819,
    "name": "足立小台",
    "name_en": "Adachi-odai",
    "ward": "Adachi",
    "operator": "東京都交通局"
  },
  {
    "id": 6235008973,
    "lat": 35.7815121,
    "lon": 139.770084,
    "name": "西新井大師西",
    "name_en": "Nishiaraidaishi-nishi",
    "ward": "Adachi",
    "operator": "東京都交通局"
  },
  {
    "id": 6237955644,
    "lat": 35.748916,
    "lon": 139.8047536,
    "name": "北千住",
    "name_en": "Kita-Senju",
    "ward": "Adachi",
    "operator": "東日本旅客鉄道"
  },
  {
    "id": 6384602191,
    "lat": 35.7586732,
    "lon": 139.8126428,
    "name": "小菅",
    "name_en": "Kosuge",
    "ward": "Adachi",
    "operator": "東武鉄道"
  },
  {
    "id": 7482027434,
    "lat": 35.7723784,
    "lon": 139.7979912,
    "name": "梅島",
    "name_en": "Umejima",
    "ward": "Adachi",
    "operator": "東武鉄道"
  },
  {
    "id": 7482027435,
    "lat": 35.7659593,
    "lon": 139.8094973,
    "name": "五反野",
    "name_en": "Gotanno",
    "ward": "Adachi",
    "operator": "東武鉄道"
  },
  {
    "id": 7482043457,
    "lat": 35.7432581,
    "lon": 139.8176989,
    "name": "堀切",
    "name_en": "Horikiri",
    "ward": "Adachi",
    "operator": "東武鉄道"
  },
  {
    "id": 7483347890,
    "lat": 35.7944805,
    "lon": 139.7908431,
    "name": "竹ノ塚",
    "name_en": "Takenotsuka",
    "ward": "Adachi",
    "operator": "東武鉄道"
  },
  {
    "id": 7786715952,
    "lat": 35.7768999,
    "lon": 139.832145,
    "name": "北綾瀬",
    "name_en": "Kita-ayase",
    "ward": "Adachi",
    "operator": "東京地下鉄"
  },
  {
    "id": 7811267726,
    "lat": 35.7439951,
    "lon": 139.8117763,
    "name": "京成関屋",
    "name_en": "Keisei Sekiya",
    "ward": "Adachi",
    "operator": "京成電鉄"
  },
  {
    "id": 7857922511,
    "lat": 35.7424234,
    "lon": 139.7968196,
    "name": "千住大橋",
    "name_en": "Senjuohashi",
    "ward": "Adachi",
    "operator": "京成電鉄"
  },
  {
    "id": 7912506236,
    "lat": 35.7623043,
    "lon": 139.8257571,
    "name": "綾瀬",
    "name_en": "Ayase",
    "ward": "Adachi",
    "operator": "東日本旅客鉄道"
  },
  {
    "id": 10115801078,
    "lat": 35.7495017,
    "lon": 139.8054115,
    "name": "北千住",
    "name_en": "Kita-Senju",
    "ward": "Adachi",
    "operator": "東武鉄道;東京地下鉄"
  },
  {
    "id": 769422102,
    "lat": 35.7686276,
    "lon": 139.8704721,
    "name": "京成金町",
    "name_en": "Keisei Kanamachi",
    "ward": "Katsushika",
    "operator": "京成電鉄"
  },
  {
    "id": 2543426281,
    "lat": 35.7455741,
    "lon": 139.8560545,
    "name": "青砥",
    "name_en": "Aoto",
    "ward": "Katsushika",
    "operator": "京成電鉄"
  },
  {
    "id": 2543426602,
    "lat": 35.7509396,
    "lon": 139.8671221,
    "name": "京成高砂",
    "name_en": "Keisei Takasago",
    "ward": "Katsushika",
    "operator": "京成電鉄;北総鉄道"
  },
  {
    "id": 2545214081,
    "lat": 35.7564295,
    "lon": 139.8751807,
    "name": "柴又",
    "name_en": "Shibamata",
    "ward": "Katsushika",
    "operator": "京成電鉄"
  },
  {
    "id": 5254306690,
    "lat": 35.7695843,
    "lon": 139.8706926,
    "name": "金町",
    "name_en": "Kanamachi",
    "ward": "Katsushika",
    "operator": "東日本旅客鉄道"
  },
  {
    "id": 7179667422,
    "lat": 35.7666652,
    "lon": 139.8478007,
    "name": "亀有",
    "name_en": "Kameari",
    "ward": "Katsushika",
    "operator": "東日本旅客鉄道"
  },
  {
    "id": 7811267728,
    "lat": 35.7476751,
    "lon": 139.8274834,
    "name": "堀切菖蒲園",
    "name_en": "Horikirishobuen",
    "ward": "Katsushika",
    "operator": "京成電鉄"
  },
  {
    "id": 7857922509,
    "lat": 35.7475893,
    "lon": 139.8401447,
    "name": "お花茶屋",
    "name_en": "Ohanajaya",
    "ward": "Katsushika",
    "operator": "京成電鉄"
  },
  {
    "id": 7865838622,
    "lat": 35.7169836,
    "lon": 139.8580706,
    "name": "新小岩",
    "name_en": "Shin-Koiwa",
    "ward": "Katsushika",
    "operator": "東日本旅客鉄道"
  },
  {
    "id": 7913349583,
    "lat": 35.7317433,
    "lon": 139.8348561,
    "name": "四ツ木",
    "name_en": "Yotsugi",
    "ward": "Katsushika",
    "operator": "京成電鉄"
  },
  {
    "id": 7913349584,
    "lat": 35.7382678,
    "lon": 139.8485055,
    "name": "京成立石",
    "name_en": "Keisei Tateishi",
    "ward": "Katsushika",
    "operator": "京成電鉄"
  },
  {
    "id": 7966050122,
    "lat": 35.7510711,
    "lon": 139.8793606,
    "name": "新柴又",
    "name_en": "Shin-Shibamata",
    "ward": "Katsushika",
    "operator": "北総鉄道"
  },
  {
    "id": 1923746848,
    "lat": 35.6645795,
    "lon": 139.8593173,
    "name": "西葛西",
    "name_en": "Nishi-kasai",
    "ward": "Edogawa",
    "operator": "東京地下鉄"
  },
  {
    "id": 1923746881,
    "lat": 35.6636282,
    "lon": 139.8726921,
    "name": "葛西",
    "name_en": "Kasai",
    "ward": "Edogawa",
    "operator": "東京地下鉄"
  },
  {
    "id": 1947656218,
    "lat": 35.6444075,
    "lon": 139.8615992,
    "name": "葛西臨海公園",
    "name_en": "Kasai-Rinkai Park",
    "ward": "Edogawa"
  },
  {
    "id": 2250286185,
    "lat": 35.7332364,
    "lon": 139.881843,
    "name": "小岩",
    "name_en": "Koiwa",
    "ward": "Edogawa",
    "operator": "東日本旅客鉄道"
  },
  {
    "id": 7791605907,
    "lat": 35.6838309,
    "lon": 139.864297,
    "name": "船堀",
    "name_en": "Funabori",
    "ward": "Edogawa",
    "operator": "東京都交通局"
  },
  {
    "id": 7791605908,
    "lat": 35.7060788,
    "lon": 139.9038381,
    "name": "篠崎",
    "name_en": "Shinozaki",
    "ward": "Edogawa",
    "operator": "東京都交通局"
  },
  {
    "id": 7791605909,
    "lat": 35.6932479,
    "lon": 139.8976392,
    "name": "瑞江",
    "name_en": "Mizue",
    "ward": "Edogawa",
    "operator": "東京都交通局"
  },
  {
    "id": 7791605929,
    "lat": 35.6860437,
    "lon": 139.8831198,
    "name": "一之江",
    "name_en": "Ichinoe",
    "ward": "Edogawa",
    "operator": "東京都交通局"
  },
  {
    "id": 7858131585,
    "lat": 35.7377552,
    "lon": 139.8958777,
    "name": "江戸川",
    "name_en": "Edogawa",
    "ward": "Edogawa",
    "operator": "京成電鉄"
  },
  {
    "id": 7858131586,
    "lat": 35.7424201,
    "lon": 139.8833524,
    "name": "京成小岩",
    "name_en": "Keisei Koiwa",
    "ward": "Edogawa",
    "operator": "京成電鉄"
  },
  {
    "id": 7865838626,
    "lat": 35.706421,
    "lon": 139.8425004,
    "name": "平井",
    "name_en": "Hirai",
    "ward": "Edogawa",
    "operator": "東日本旅客鉄道"
  },
  {
    "id": 1923768928,
    "lat": 35.6846087,
    "lon": 139.7664613,
    "name": "大手町",
    "name_en": "Otemachi",
    "ward": "Chiyoda",
    "operator": "東京地下鉄"
  },
  {
    "id": 1926277330,
    "lat": 35.6866919,
    "lon": 139.7650376,
    "name": "大手町",
    "name_en": "Otemachi",
    "ward": "Chiyoda",
    "operator": "東京地下鉄"
  },
  {
    "id": 1926277338,
    "lat": 35.686757,
    "lon": 139.7636157,
    "name": "大手町",
    "name_en": "Otemachi",
    "ward": "Chiyoda",
    "operator": "東京地下鉄"
  },
  {
    "id": 1926376081,
    "lat": 35.6779456,
    "lon": 139.7415775,
    "name": "永田町",
    "name_en": "Nagatacho",
    "ward": "Chiyoda",
    "operator": "東京地下鉄"
  },
  {
    "id": 2149761647,
    "lat": 35.6812546,
    "lon": 139.766706,
    "name": "東京",
    "name_en": "Tōkyō",
    "ward": "Chiyoda",
    "operator": "東日本旅客鉄道"
  },
  {
    "id": 2558121912,
    "lat": 35.6911864,
    "lon": 139.7356237,
    "name": "市ケ谷",
    "name_en": "Ichigaya",
    "ward": "Chiyoda"
  },
  {
    "id": 2558121917,
    "lat": 35.6917939,
    "lon": 139.7709112,
    "name": "神田",
    "name_en": "Kanda",
    "ward": "Chiyoda",
    "operator": "東日本旅客鉄道"
  },
  {
    "id": 2558121946,
    "lat": 35.7020419,
    "lon": 139.7536358,
    "name": "水道橋",
    "name_en": "Suidobashi",
    "ward": "Chiyoda",
    "operator": "東日本旅客鉄道"
  },
  {
    "id": 2558121955,
    "lat": 35.6749598,
    "lon": 139.7630483,
    "name": "有楽町",
    "name_en": "Yurakucho",
    "ward": "Chiyoda",
    "operator": "東日本旅客鉄道"
  },
  {
    "id": 2559434114,
    "lat": 35.7007418,
    "lon": 139.7440022,
    "name": "飯田橋",
    "name_en": "Iidabashi",
    "ward": "Chiyoda"
  },
  {
    "id": 2559434143,
    "lat": 35.6996103,
    "lon": 139.7649486,
    "name": "御茶ノ水",
    "name_en": "Ochanomizu",
    "ward": "Chiyoda",
    "operator": "東日本旅客鉄道"
  },
  {
    "id": 4406983223,
    "lat": 35.6860587,
    "lon": 139.730612,
    "name": "四ツ谷",
    "name_en": "Yotsuya",
    "ward": "Chiyoda"
  },
  {
    "id": 4416166080,
    "lat": 35.6959079,
    "lon": 139.7512822,
    "name": "九段下",
    "name_en": "Kudanshita",
    "ward": "Chiyoda",
    "operator": "東京地下鉄"
  },
  {
    "id": 5408242400,
    "lat": 35.7017139,
    "lon": 139.7459937,
    "name": "飯田橋",
    "name_en": "Iidabashi",
    "ward": "Chiyoda",
    "operator": "東京地下鉄"
  },
  {
    "id": 5408256884,
    "lat": 35.6900994,
    "lon": 139.7587484,
    "name": "竹橋",
    "name_en": "Takebashi",
    "ward": "Chiyoda",
    "operator": "東京地下鉄"
  },
  {
    "id": 5409192473,
    "lat": 35.6840162,
    "lon": 139.7626637,
    "name": "大手町",
    "name_en": "Otemachi",
    "ward": "Chiyoda",
    "operator": "東京都交通局"
  },
  {
    "id": 6184838874,
    "lat": 35.6949465,
    "lon": 139.7662986,
    "name": "小川町",
    "name_en": "Ogawamachi",
    "ward": "Chiyoda",
    "operator": "東京都交通局"
  },
  {
    "id": 6186032720,
    "lat": 35.695008,
    "lon": 139.7582694,
    "name": "神保町",
    "name_en": "Jimbocho",
    "ward": "Chiyoda",
    "operator": "東京都交通局"
  },
  {
    "id": 6186649798,
    "lat": 35.6959273,
    "lon": 139.7572047,
    "name": "神保町",
    "name_en": "Jimbocho",
    "ward": "Chiyoda",
    "operator": "東京地下鉄"
  },
  {
    "id": 6189867178,
    "lat": 35.6953694,
    "lon": 139.7503783,
    "name": "九段下",
    "name_en": "Kudanshita",
    "ward": "Chiyoda",
    "operator": "東京地下鉄"
  },
  {
    "id": 6189867179,
    "lat": 35.6952299,
    "lon": 139.7505069,
    "name": "九段下",
    "name_en": "Kudanshita",
    "ward": "Chiyoda",
    "operator": "東京地下鉄"
  },
  {
    "id": 6191130324,
    "lat": 35.6737302,
    "lon": 139.7583499,
    "name": "日比谷",
    "name_en": "Hibiya",
    "ward": "Chiyoda",
    "operator": "東京地下鉄;東京都交通局"
  },
  {
    "id": 6192618377,
    "lat": 35.6774009,
    "lon": 139.7515757,
    "name": "桜田門",
    "name_en": "Sakuradamon",
    "ward": "Chiyoda",
    "operator": "東京地下鉄"
  },
  {
    "id": 6193465461,
    "lat": 35.6762399,
    "lon": 139.7601969,
    "name": "日比谷",
    "name_en": "Hibiya",
    "ward": "Chiyoda",
    "operator": "東京地下鉄;東京都交通局"
  },
  {
    "id": 6193611538,
    "lat": 35.6759691,
    "lon": 139.7621359,
    "name": "有楽町",
    "name_en": "Yurakucho",
    "ward": "Chiyoda",
    "operator": "東京地下鉄"
  },
  {
    "id": 6193732167,
    "lat": 35.6820173,
    "lon": 139.7649584,
    "name": "東京",
    "name_en": "Tokyo",
    "ward": "Chiyoda",
    "operator": "東京地下鉄"
  },
  {
    "id": 6195254304,
    "lat": 35.6725014,
    "lon": 139.7516221,
    "name": "霞ケ関",
    "name_en": "Kasumigaseki",
    "ward": "Chiyoda",
    "operator": "東京地下鉄"
  },
  {
    "id": 6196655597,
    "lat": 35.6738544,
    "lon": 139.7510565,
    "name": "霞ケ関",
    "name_en": "Kasumigaseki",
    "ward": "Chiyoda",
    "operator": "東京地下鉄"
  },
  {
    "id": 6198306276,
    "lat": 35.674217,
    "lon": 139.7527174,
    "name": "霞ケ関",
    "name_en": "Kasumigaseki",
    "ward": "Chiyoda",
    "operator": "東京地下鉄"
  },
  {
    "id": 6199739250,
    "lat": 35.6972185,
    "lon": 139.7656264,
    "name": "新御茶ノ水",
    "name_en": "Shin-ochanomizu",
    "ward": "Chiyoda",
    "operator": "東京地下鉄"
  },
  {
    "id": 6202341257,
    "lat": 35.6736889,
    "lon": 139.7434262,
    "name": "国会議事堂前",
    "name_en": "Kokkai-gijidomae",
    "ward": "Chiyoda",
    "operator": "東京地下鉄"
  },
  {
    "id": 6202373220,
    "lat": 35.6729903,
    "lon": 139.741424,
    "name": "溜池山王",
    "name_en": "Tameike-sanno",
    "ward": "Chiyoda",
    "operator": "東京地下鉄"
  },
  {
    "id": 6206669779,
    "lat": 35.6803213,
    "lon": 139.7616161,
    "name": "二重橋前〈丸の内〉",
    "name_en": "Nijubashimae 'Marunouchi'",
    "ward": "Chiyoda",
    "operator": "東京地下鉄"
  },
  {
    "id": 6208064122,
    "lat": 35.6852213,
    "lon": 139.7415832,
    "name": "半蔵門",
    "name_en": "Hanzomon",
    "ward": "Chiyoda",
    "operator": "東京地下鉄"
  },
  {
    "id": 6231304485,
    "lat": 35.6744172,
    "lon": 139.760332,
    "name": "日比谷",
    "name_en": "Hibiya",
    "ward": "Chiyoda",
    "operator": "東京地下鉄"
  },
  {
    "id": 6238841525,
    "lat": 35.6988302,
    "lon": 139.7743023,
    "name": "秋葉原",
    "name_en": "Akihabara",
    "ward": "Chiyoda",
    "operator": "首都圏新都市鉄道"
  },
  {
    "id": 6238851056,
    "lat": 35.695614,
    "lon": 139.7753176,
    "name": "岩本町",
    "name_en": "Iwamotocho",
    "ward": "Chiyoda",
    "operator": "東京都交通局"
  },
  {
    "id": 6240615686,
    "lat": 35.6984622,
    "lon": 139.775504,
    "name": "秋葉原",
    "name_en": "Akihabara",
    "ward": "Chiyoda",
    "operator": "東京地下鉄"
  },
  {
    "id": 6261787929,
    "lat": 35.6923805,
    "lon": 139.736689,
    "name": "市ケ谷",
    "name_en": "Ichigaya",
    "ward": "Chiyoda",
    "operator": "東京地下鉄"
  },
  {
    "id": 6329152325,
    "lat": 35.6937148,
    "lon": 139.7708898,
    "name": "神田",
    "name_en": "Kanda",
    "ward": "Chiyoda",
    "operator": "東京地下鉄"
  },
  {
    "id": 6780109836,
    "lat": 35.6983609,
    "lon": 139.7731217,
    "name": "秋葉原",
    "name_en": "Akihabara",
    "ward": "Chiyoda",
    "operator": "東日本旅客鉄道"
  },
  {
    "id": 7786715955,
    "lat": 35.7029361,
    "lon": 139.7716793,
    "name": "末広町",
    "name_en": "Suehirocho",
    "ward": "Chiyoda",
    "operator": "東京地下鉄"
  },
  {
    "id": 7786715964,
    "lat": 35.6745485,
    "lon": 139.7455534,
    "name": "国会議事堂前",
    "name_en": "Kokkai-gijidomae",
    "ward": "Chiyoda",
    "operator": "東京地下鉄"
  },
  {
    "id": 7786715965,
    "lat": 35.6950614,
    "lon": 139.767473,
    "name": "淡路町",
    "name_en": "Awajicho",
    "ward": "Chiyoda",
    "operator": "東京地下鉄"
  },
  {
    "id": 7786715966,
    "lat": 35.6867882,
    "lon": 139.7662244,
    "name": "大手町",
    "name_en": "Otemachi",
    "ward": "Chiyoda",
    "operator": "東京地下鉄"
  },
  {
    "id": 7786715977,
    "lat": 35.6840244,
    "lon": 139.7376514,
    "name": "麹町",
    "name_en": "Kojimachi",
    "ward": "Chiyoda",
    "operator": "東京地下鉄"
  },
  {
    "id": 7791605904,
    "lat": 35.6915471,
    "lon": 139.7376683,
    "name": "市ケ谷",
    "name_en": "Ichigaya",
    "ward": "Chiyoda",
    "operator": "東京都交通局"
  },
  {
    "id": 7791605905,
    "lat": 35.6959719,
    "lon": 139.7583937,
    "name": "神保町",
    "name_en": "Jimbocho",
    "ward": "Chiyoda",
    "operator": "東京都交通局"
  },
  {
    "id": 10113292369,
    "lat": 35.6784518,
    "lon": 139.7389145,
    "name": "永田町",
    "name_en": "Nagatacho",
    "ward": "Chiyoda"
  },
  {
    "id": 11047386279,
    "lat": 35.6785619,
    "lon": 139.7391968,
    "name": "永田町",
    "name_en": "Nagatacho",
    "ward": "Chiyoda"
  },
  {
    "id": 11329319854,
    "lat": 35.6811412,
    "lon": 139.7674549,
    "name": "東京",
    "name_en": "Tokyo",
    "ward": "Chiyoda",
    "operator": "東日本旅客鉄道"
  },
  {
    "id": 11329319855,
    "lat": 35.6809626,
    "lon": 139.7679859,
    "name": "東京",
    "name_en": "Tokyo",
    "ward": "Chiyoda",
    "operator": "東海旅客鉄道"
  },
  {
    "id": 1926355396,
    "lat": 35.6862799,
    "lon": 139.7821879,
    "name": "人形町",
    "name_en": "Ningyōchō",
    "ward": "Chuo"
  },
  {
    "id": 1926355402,
    "lat": 35.6696837,
    "lon": 139.7669476,
    "name": "東銀座",
    "name_en": "Higashi-Ginza",
    "ward": "Chuo",
    "operator": "東京地下鉄"
  },
  {
    "id": 1926355405,
    "lat": 35.6680848,
    "lon": 139.7725918,
    "name": "築地",
    "name_en": "Tsukiji",
    "ward": "Chuo",
    "operator": "東京地下鉄"
  },
  {
    "id": 1926417053,
    "lat": 35.6706344,
    "lon": 139.7734197,
    "name": "新富町",
    "name_en": "Shintomicho",
    "ward": "Chuo",
    "operator": "東京地下鉄"
  },
  {
    "id": 1926417056,
    "lat": 35.6641695,
    "lon": 139.7844793,
    "name": "月島",
    "name_en": "Tsukishima",
    "ward": "Chuo",
    "operator": "東京都交通局"
  },
  {
    "id": 1926703932,
    "lat": 35.6849516,
    "lon": 139.7730743,
    "name": "三越前",
    "name_en": "Mitsukoshimae",
    "ward": "Chuo",
    "operator": "東京地下鉄"
  },
  {
    "id": 2730655241,
    "lat": 35.6802291,
    "lon": 139.7794236,
    "name": "茅場町",
    "name_en": "Kayabacho",
    "ward": "Chuo",
    "operator": "東京地下鉄"
  },
  {
    "id": 5408257692,
    "lat": 35.6822079,
    "lon": 139.7744933,
    "name": "日本橋",
    "name_en": "Nihombashi",
    "ward": "Chuo"
  },
  {
    "id": 5980724967,
    "lat": 35.5945354,
    "lon": 138.5269006,
    "name": "東花輪",
    "name_en": "Higashi-Hanawa",
    "ward": "Chuo"
  },
  {
    "id": 5980724969,
    "lat": 35.6048909,
    "lon": 138.5285653,
    "name": "小井川",
    "name_en": "Koikawa",
    "ward": "Chuo"
  },
  {
    "id": 6240689967,
    "lat": 35.6820843,
    "lon": 139.7733976,
    "name": "日本橋",
    "name_en": "Nihombashi",
    "ward": "Chuo",
    "operator": "東京地下鉄"
  },
  {
    "id": 6240710301,
    "lat": 35.6818307,
    "lon": 139.7758101,
    "name": "日本橋",
    "name_en": "Nihombashi",
    "ward": "Chuo",
    "operator": "東京都交通局"
  },
  {
    "id": 6242231340,
    "lat": 35.687054,
    "lon": 139.7736283,
    "name": "三越前",
    "name_en": "Mitsukoshimae",
    "ward": "Chuo",
    "operator": "東京地下鉄"
  },
  {
    "id": 6271990033,
    "lat": 35.6728411,
    "lon": 139.7631029,
    "name": "銀座",
    "name_en": "Ginza",
    "ward": "Chuo",
    "operator": "東京地下鉄"
  },
  {
    "id": 6272010117,
    "lat": 35.6720707,
    "lon": 139.7638932,
    "name": "銀座",
    "name_en": "Ginza",
    "ward": "Chuo",
    "operator": "東京地下鉄"
  },
  {
    "id": 6272039605,
    "lat": 35.6714622,
    "lon": 139.7652995,
    "name": "銀座",
    "name_en": "Ginza",
    "ward": "Chuo",
    "operator": "東京地下鉄"
  },
  {
    "id": 6278523326,
    "lat": 35.664645,
    "lon": 139.7845639,
    "name": "月島",
    "name_en": "Tsukishima",
    "ward": "Chuo",
    "operator": "東京地下鉄"
  },
  {
    "id": 6293444409,
    "lat": 35.6698189,
    "lon": 139.7672583,
    "name": "東銀座",
    "name_en": "Higashi-Ginza",
    "ward": "Chuo",
    "operator": "東京都交通局"
  },
  {
    "id": 6333133527,
    "lat": 35.6743469,
    "lon": 139.7670332,
    "name": "銀座一丁目",
    "name_en": "Ginza-itchome",
    "ward": "Chuo",
    "operator": "東京地下鉄"
  },
  {
    "id": 6353024187,
    "lat": 35.6825235,
    "lon": 139.7856405,
    "name": "水天宮前",
    "name_en": "Suitengumae",
    "ward": "Chuo",
    "operator": "東京地下鉄"
  },
  {
    "id": 6376099903,
    "lat": 35.6884743,
    "lon": 139.7881422,
    "name": "浜町",
    "name_en": "Hamacho",
    "ward": "Chuo",
    "operator": "東京都交通局"
  },
  {
    "id": 6440614866,
    "lat": 35.6589623,
    "lon": 139.7771747,
    "name": "勝どき",
    "name_en": "Kachidoki",
    "ward": "Chuo",
    "operator": "東京都交通局"
  },
  {
    "id": 6449441183,
    "lat": 35.6746238,
    "lon": 139.7776565,
    "name": "八丁堀",
    "name_en": "Hatchōbori",
    "ward": "Chuo",
    "operator": "東日本旅客鉄道"
  },
  {
    "id": 7786715954,
    "lat": 35.676696,
    "lon": 139.7700412,
    "name": "京橋",
    "name_en": "Kyobashi",
    "ward": "Chuo",
    "operator": "東京地下鉄"
  },
  {
    "id": 7786715978,
    "lat": 35.6750004,
    "lon": 139.7770726,
    "name": "八丁堀",
    "name_en": "Hatchobori",
    "ward": "Chuo",
    "operator": "東京地下鉄"
  },
  {
    "id": 7786715979,
    "lat": 35.6792567,
    "lon": 139.779738,
    "name": "茅場町",
    "name_en": "Kayabacho",
    "ward": "Chuo",
    "operator": "東京地下鉄"
  },
  {
    "id": 7786715980,
    "lat": 35.6907525,
    "lon": 139.7784526,
    "name": "小伝馬町",
    "name_en": "Kodemmacho",
    "ward": "Chuo",
    "operator": "東京地下鉄"
  },
  {
    "id": 7791591074,
    "lat": 35.6921239,
    "lon": 139.7848848,
    "name": "東日本橋",
    "name_en": "Higashi-nihombashi",
    "ward": "Chuo",
    "operator": "東京都交通局"
  },
  {
    "id": 7791591078,
    "lat": 35.6754339,
    "lon": 139.7718846,
    "name": "宝町",
    "name_en": "Takaracho",
    "ward": "Chuo",
    "operator": "東京都交通局"
  },
  {
    "id": 7791605894,
    "lat": 35.6648789,
    "lon": 139.7668843,
    "name": "築地市場",
    "name_en": "Tsukijishijo",
    "ward": "Chuo",
    "operator": "東京都交通局"
  },
  {
    "id": 7791605906,
    "lat": 35.6921222,
    "lon": 139.7827937,
    "name": "馬喰横山",
    "name_en": "Bakuroyokoyama",
    "ward": "Chuo",
    "operator": "東京都交通局"
  },
  {
    "id": 7894118184,
    "lat": 35.6861848,
    "lon": 139.7824162,
    "name": "人形町",
    "name_en": "Ningyocho",
    "ward": "Chuo",
    "operator": "東京地下鉄"
  },
  {
    "id": 7942251386,
    "lat": 35.6890005,
    "lon": 139.7741939,
    "name": "新日本橋",
    "name_en": "Shin-Nihombashi",
    "ward": "Chuo",
    "operator": "東日本旅客鉄道"
  },
  {
    "id": 7942251391,
    "lat": 35.6933693,
    "lon": 139.782427,
    "name": "馬喰町",
    "name_en": "Bakurochō",
    "ward": "Chuo",
    "operator": "東日本旅客鉄道"
  }
]
